name,city,postal_code,street,building_number,orientation_number
Praha 10,Praha,10000,Černokostelecká,2020,20
Praha 104,Praha,10004,Nákupní,389,3
Praha 107,Praha,10007,Švehlova,1391,32
Praha 101,Praha,10100,Sportovní,846,22
Praha 113,Praha,10300,K poště,416,3
Praha 114,Praha,10400,Nové náměstí,1370,11
Praha 106,Praha,10600,Malinová,1739,1
Praha 112,Praha,10700,Za pavilónem,666,0
Praha 111,Praha,10900,Veronské náměstí,403,0
Praha 1,Praha,11000,Jindřišská,909,14
Praha 05,Praha,11005,Rybná,682,14
Dolní Měcholupy,Praha,11101,Dolnoměcholupská,168,37
Mobilní pošta 11,Opava,11111,Partyzánská,1521,7
Praha 011,Praha,11800,Malostranské náměstí,36,22
Praha 012,Praha,11900,Hrad III. nádvoří,48,2
Praha 2,Praha,12000,Moravská,1530,9
Praha 28,Praha,12800,Karlovo náměstí,2097,10
Praha 3,Praha,13000,Olšanská,38,9
Praha 4,Praha,14000,Na strži,1709,42
Praha 44,Praha,14004,K Libuši,7,10
Praha 416,Praha,14016,Křesomyslova,593,12
Praha 418,Praha,14018,Novodvorská,434,149
Praha 41,Praha,14100,Hlavní,2459,108
Praha 411,Praha,14200,Durychova,972,72
Praha 412,Praha,14300,Sofijské náměstí,3406,1
Praha 413,Praha,14400,Libušská,1,204
Praha 414,Praha,14800,Roztylská,2321,19
Praha 415,Praha,14900,Podjavorinské,1595,1
Praha 5,Praha,15000,Preslova,73,12
Praha 53,Praha,15003,Na Zatlance,1823,2
Praha 56,Praha,15006,Plzeňská,1348,95
Praha 550,Praha,15015,Radlická,520,117
Praha 519,Praha,15019,Janského,2254,45
Praha 500,Praha,15020,Voskovcova,1075,51
Praha 52,Praha,15200,Tilleho náměstí,792,2
Praha 512,Praha,15300,náměstí Osvoboditelů,1409,0
Praha 514,Praha,15400,K Lochkovu,6,2
Praha 515,Praha,15500,Hábova,1516,3
Praha 513,Praha,15511,Hasičů,46,3
Praha 517,Praha,15521,Křivatcová,244,1
Praha 511,Praha,15531,Na Bambouzku,500,0
Praha 516,Praha,15600,Elišky Přemyslovny,1617,0
Praha 59,Praha,15900,Starochuchelská,7,0
Praha 6,Praha,16000,Kafkova,102,19
Praha 600,Praha,16020,Fajtlova,1090,1
Praha 650,Praha,16150,Drnovská,1167,0
Praha 616,Praha,16200,Na Petřinách,302,42
Praha 618,Praha,16300,Makovského,1349,2a
Praha 619,Praha,16400,Nebušická,128,0
Praha 620,Praha,16500,Suchdolské náměstí,734,3
Praha 69,Praha,16900,Břevnovská,1692,6
Praha 7,Praha,17000,Milady Horákové,383,81
Praha 74,Praha,17004,Dělnická,213,12
Praha 71,Praha,17100,Trojská,632,173b
Praha 8,Praha,18000,Sokolovská,260,143
Praha 88,Praha,18008,Osinalická,1104,13
Praha 81,Praha,18100,Lodžská,850,6
Praha 82,Praha,18200,Burešova,1663,6
Praha 84,Praha,18400,Spořická,443,23
Praha 9,Praha,19000,Verneřická,407,6
Praha 93,Praha,19003,Freyova,945,35
Praha 900,Praha,19009,Chlumecká,765,6
Praha 911,Praha,19011,Českobrodská,516,0
Praha 912,Praha,19012,Stará obec,5,0
Praha 914,Praha,19014,Slavětínská,33,53
Praha 915,Praha,19015,K Radonicům,81,3
Praha 916,Praha,19016,Staroújezdská,23,0
Praha 917,Praha,19017,Bohdanečská,97,0
Praha 913,Praha,19300,Náchodská,701,95
Praha 96,Praha,19600,Cukrovarská,2,27
Praha 97,Praha,19700,Semilská,885,4
Praha 98,Praha,19800,Bratří Venclíků,1139,3
Praha 99,Praha,19900,Bechyňská,638,0
Mobilní pošta 21,Kunčice pod Ondřejníkem,22222,,569,0
Brandýs nad Labem-Stará Boleslav 1,Brandýs nad Labem-Stará Boleslav,25001,Riegrova,630,2
Brandýs nad Labem-Stará Boleslav 2,Brandýs nad Labem-Stará Boleslav,25002,Boleslavská,1391,0
Hovorčovice,Hovorčovice,25006,Revoluční,327,0
Zápy,Zápy,25061,,7,0
Mratín,Mratín,25063,Kostelecká,131,0
Měšice u Prahy,Měšice,25064,Nová,275,0
Líbeznice,Líbeznice,25065,Mělnická,275,0
Zdiby,Zdiby,25066,U Pošty,54,0
Klecany,Klecany,25067,U školky,487,0
Řež,Husinec,25068,U Pošty,38,0
Vodochody,Vodochody,25069,U Pošty,63,0
Odolena Voda,Odolena Voda,25070,Velkoveská,34,0
Kojetice u Prahy,Kojetice,25072,Lipová,75,0
Jenštejn,Jenštejn,25073,9. května,60,0
Káraný,Káraný,25075,Václavská,19,0
Nehvizdy,Nehvizdy,25081,Pražská,255,0
Úvaly,Úvaly,25082,Riegerova,897,0
Škvorec,Škvorec,25083,Čs. armády,107,0
Sibřina,Sibřina,25084,Říčanská,15,0
Bašť,Bašť,25085,Dlouhá,52,0
Mochov,Mochov,25087,Husovo náměstí,16,0
Čelákovice,Čelákovice,25088,Stankovského,1650,0
Lázně Toušeň,Lázně Toušeň,25089,Za Školou,2,0
Jirny,Jirny,25090,Brandýská,9,0
Zeleneč v Čechách,Zeleneč,25091,Čsl. armády,113,2
Šestajovice,Šestajovice,25092,Revoluční,149,41
Říčany u Prahy,Říčany,25101,Masarykovo náměstí,62,32
Mukařov,Mukařov,25162,Příčná,11,0
Strančice,Strančice,25163,Revoluční,383,0
Mnichovice,Mnichovice,25164,Tyršova,194,0
Ondřejov,Ondřejov,25165,náměstí 9. května,68,0
Senohraby,Senohraby,25166,Hlavní,48,0
Pyšely,Pyšely,25167,náměstí T. G. Masaryka,66,0
Kamenice,Kamenice,25168,Jednosměrná,316,0
Velké Popovice,Velké Popovice,25169,Masarykova,15,0
Dobřejovice,Dobřejovice,25170,Na Návsi,3,0
Sulice,Sulice,25194,Školní,343,0
Jíloviště,Jíloviště,25202,Pražská,81,0
Řitka,Řitka,25203,Na návsi,54,0
Čisovice,Čisovice,25204,,35,0
Hvozdnice,Hvozdnice,25205,,160,0
Davle,Davle,25206,Na náměstí,63,0
Štěchovice,Štěchovice,25207,Hlavní,3,0
Slapy nad Vltavou,Slapy,25208,,348,0
Hradištko,Hradištko,25209,Pikovická,276,0
Mníšek pod Brdy,Mníšek pod Brdy,25210,Skalecká,2,0
Nučice,Nučice,25216,Báňská,154,0
Tachlovice,Tachlovice,25217,Jakubská náves,8,0
Úhonice,Úhonice,25218,Na Návsi,24,0
Rudná,Rudná,25219,Masarykova,105,47
Jinočany,Jinočany,25225,Náměstí 5. května,256,0
Třebotov,Třebotov,25226,Klidná,69,0
Černošice,Černošice,25228,Karlštejnská,259,0
Dobřichovice,Dobřichovice,25229,Palackého náměstí,951,0
Řevnice,Řevnice,25230,Mníšecká,1060,0
Všenory,Všenory,25231,U Silnice,151,0
Dolní Břežany,Dolní Břežany,25241,U Náměstí,712,0
Jesenice u Prahy,Jesenice,25242,Budějovická,130,0
Průhonice,Průhonice,25243,Říčanská,197,0
Psáry,Psáry,25244,Pražská,137,0
Zvole u Prahy,Zvole,25245,Na Výsluní,270,0
Vrané nad Vltavou,Vrané nad Vltavou,25246,U Pošty,205,0
Čestlice,Čestlice,25247,U Makra,102,0
Vestec,Vestec,25250,U Hrubých,650,0
Jeneč,Jeneč,25261,Lidická,82,0
Horoměřice,Horoměřice,25262,Požárníků,38,0
Roztoky u Prahy,Roztoky,25263,Tyršovo náměstí,2221,0
Velké Přílepy,Velké Přílepy,25264,Svrkyňská,63,0
Tursko,Tursko,25265,Čestmírovo náměstí,59,0
Libčice nad Vltavou,Libčice nad Vltavou,25266,Letecká,91,0
Tuchoměřice,Tuchoměřice,25267,K poště,460,0
Středokluky,Středokluky,25268,Lidická,61,0
Petrov,Petrov,25281,Hlavní,101,0
Kamenný Přívoz,Kamenný Přívoz,25282,,285,0
Hostivice,Hostivice,25301,Čsl. armády,1705,0
Chýně,Chýně,25303,Hlavní,200,0
Jílové u Prahy,Jílové u Prahy,25401,Rudných dolů,502,0
Benešov u Prahy,Benešov,25601,Poštovní,478,0
Teplýšovice,Teplýšovice,25602,,24,0
Postupice,Postupice,25701,Blanická,128,0
Popovice,Popovice,25702,,78,0
Jankov,Jankov,25703,Na náměstí,14,0
Odlochovice,Jankov,25704,,35,0
Zvěstov,Zvěstov,25705,,13,0
Louňovice pod Blaníkem,Louňovice pod Blaníkem,25706,J. Žižky,45,0
Kamberk,Kamberk,25707,,71,0
Načeradec,Načeradec,25708,Lhotecká,271,0
Pravonín,Pravonín,25709,,156,0
Poříčí nad Sázavou,Poříčí nad Sázavou,25721,Čerčanská,77,0
Čerčany,Čerčany,25722,Sokolská,200,0
Přestavlky u Čerčan,Přestavlky u Čerčan,25723,,48,0
Chocerady,Chocerady,25724,,100,0
Kozmice u Benešova,Kozmice,25725,,12,0
Divišov,Divišov,25726,Horní náměstí,17,0
Český Šternberk,Český Šternberk,25727,,27,0
Chotýšany,Chotýšany,25728,,54,0
Týnec nad Sázavou,Týnec nad Sázavou,25741,Družstevní,524,0
Krhanice,Týnec nad Sázavou,25742,,223,0
Netvořice,Netvořice,25744,Pražská,16,0
Křečovice,Křečovice,25748,,59,0
Bystřice u Benešova,Bystřice,25751,Ješutovo náměstí,14,0
Olbramovice,Olbramovice,25752,,5,0
Vrchotovy Janovice,Vrchotovy Janovice,25753,,2,0
Vojkov,Vojkov,25754,,16,0
Maršovice,Maršovice,25755,,74,0
Neveklov,Neveklov,25756,náměstí Jana Heřmana,63,0
Domašín,Vlašim,25761,,63,0
Kladruby u Vlašimi,Kladruby,25762,,39,0
Trhový Štěpánov,Trhový Štěpánov,25763,Náměstí,143,0
Zdislavice,Zdislavice,25764,,87,0
Čechtice,Čechtice,25765,náměstí Dr. Tyrše,332,0
Křivsoudov,Křivsoudov,25766,,97,0
Dolní Kralovice,Dolní Kralovice,25768,Fibichova,5,0
Bernartice,Bernartice,25769,,39,0
Soutice,Soutice,25771,,16,0
Neustupov,Neustupov,25785,,63,0
Miličín,Miličín,25786,,235,0
Střezimíř,Střezimíř,25787,,47,0
Červený Újezd,Červený Újezd,25788,,36,0
Heřmaničky,Heřmaničky,25789,,55,0
Smilkov,Smilkov,25790,,3,0
Sedlec-Prčice 1,Sedlec-Prčice,25791,Komenského,65,0
Vlašim,Vlašim,25801,Blanická,1108,0
Votice,Votice,25901,Nerudova,11,0
Příbram 1,Příbram,26101,Gen. R. Tesaříka,179,0
Příbram 2,Příbram,26102,třída Osvobození,305,0
Stará Huť,Stará Huť,26202,Karla Čapka,451,0
Nový Knín,Nový Knín,26203,náměstí Jiřího z Poděbrad,2,0
Nová Ves pod Pleší,Nová Ves pod Pleší,26204,Masarykova třída,125,0
Velká Lečice,Velká Lečice,26205,,85,0
Rosovice,Rosovice,26211,,60,0
Obořiště,Obořiště,26212,,45,0
Nečín,Nečín,26213,,3,0
Hřiměždice,Hřiměždice,26214,,46,0
Borotice,Borotice,26215,,31,0
Obecnice,Obecnice,26221,,159,0
Hluboš,Hluboš,26222,,3,0
Jince,Jince,26223,Slavíkova,4,0
Čenkov,Čenkov,26224,,19,0
Pičín,Pičín,26225,,154,0
Milín,Milín,26231,11. května,27,0
Pečice,Pečice,26232,,101,0
Solenice,Solenice,26233,,37,0
Milešov,Milešov,26234,,73,0
Klučenice,Klučenice,26235,,77,0
Smolotely,Smolotely,26236,,21,0
Bohutín,Bohutín,26241,,131,0
Rožmitál pod Třemšínem,Rožmitál pod Třemšínem,26242,Náměstí,24,0
Věšín,Věšín,26243,,3,0
Hvožďany,Hvožďany,26244,,16,0
Dublovice,Dublovice,26251,,33,0
Vysoký Chlumec,Vysoký Chlumec,26252,,14,0
Počepice,Počepice,26253,,60,0
Nechvalice,Nechvalice,26254,,62,0
Petrovice u Sedlčan,Petrovice,26255,,64,0
Krásná Hora nad Vltavou,Krásná Hora nad Vltavou,26256,,26,0
Višňová u Příbramě,Višňová,26261,,153,0
Dolní Hbity,Dolní Hbity,26262,,55,0
Kamýk nad Vltavou,Kamýk nad Vltavou,26263,,182,0
Svatý Jan,Svatý Jan,26264,,33,0
Třebsko,Třebsko,26271,,36,0
Březnice,Březnice,26272,Rožmitálská,21,0
Tochovice,Tochovice,26281,,11,0
Starosedlský Hrádek,Starosedlský Hrádek,26282,,,0
Chraštice,Chraštice,26283,,2,0
Zalužany,Zalužany,26284,,30,0
Drahenice,Drahenice,26285,,87,0
Kosova Hora,Kosova Hora,26291,,45,0
Štětkovice,Štětkovice,26292,,71,0
Nalžovice,Nalžovice,26293,,21,0
Jesenice,Jesenice,26294,,11,0
Dobříš,Dobříš,26301,náměstí Komenského,536,0
Sedlčany,Sedlčany,26401,Nádražní,106,0
Beroun 1,Beroun,26601,Kostelní,121,27
Králův Dvůr u Berouna,Králův Dvůr,26701,Plzeňská,327,0
Hudlice,Hudlice,26703,Jungmannova,64,0
Nižbor,Nižbor,26705,Křivoklátská,108,0
Hýskov,Hýskov,26706,Na Břasích,206,0
Chyňava,Chyňava,26707,Velká Strana,39,0
Vráž u Berouna,Vráž,26711,Květnová,64,0
Loděnice u Berouna,Loděnice,26712,Husovo náměstí,4,0
Vysoký Újezd,Vysoký Újezd,26716,Tyršova náves,113,0
Mořina,Mořina,26717,,81,0
Karlštejn,Karlštejn,26718,,17,0
Tmaň,Tmaň,26721,Sídliště,50,0
Suchomasty,Suchomasty,26722,,89,0
Lochovice,Lochovice,26723,,349,0
Hostomice pod Brdy,Hostomice,26724,Tyršovo náměstí,248,0
Osov,Osov,26725,,108,0
Všeradice,Všeradice,26726,,122,0
Liteň,Liteň,26727,Nádražní,401,0
Svinaře,Svinaře,26728,Obecní,77,0
Zadní Třebaň,Zadní Třebaň,26729,Na Návsi,4,0
Kublov,Kublov,26741,,136,0
Broumy,Broumy,26742,U radnice,73,0
Bzová u Hořovic,Bzová,26743,,52,0
Zdice,Zdice,26751,Husova,953,0
Žebrák,Žebrák,26753,Náměstí,14,0
Praskolesy,Praskolesy,26754,,130,0
Cerhovice,Cerhovice,26761,náměstí Kapitána Kučery,72,0
Komárov u Hořovic,Komárov,26762,náměstí Otty z Losu,15,0
Zaječov,Zaječov,26763,,236,0
Olešná u Hořovic,Olešná,26764,,39,0
Hořovice,Hořovice,26801,Pražská,988,35
Rakovník 1,Rakovník,26901,Husovo náměstí,21,0
Kněževes u Rakovníka,Kněževes,27001,Václavské náměstí,124,0
Kolešovice,Kolešovice,27002,,6,0
Hořovičky,Hořovičky,27003,,9,0
Hořesedly,Hořesedly,27004,,80,0
Milostín,Milostín,27005,,38,0
Kounov u Rakovníka,Kounov,27006,,44,0
Mutějovice,Mutějovice,27007,Na Mostě,311,0
Hředle,Hředle,27008,,110,0
Krupá,Krupá,27009,,14,0
Pavlíkov,Pavlíkov,27021,,106,0
Křivoklát,Křivoklát,27023,,142,0
Zbečno,Zbečno,27024,,7,0
Senomaty,Senomaty,27031,Rakovnická,205,0
Oráčov,Oráčov,27032,,134,0
Jesenice u Rakovníka,Jesenice,27033,Plzeňská,420,0
Čistá u Rakovníka,Čistá,27034,náměstí Václavské,166,0
Petrovice u Rakovníka,Petrovice,27035,,14,0
Lubná u Rakovníka,Lubná,27036,,48,0
Slabce,Slabce,27041,,28,0
Skryje u Rakovníka,Skryje,27042,,68,0
Lužná v Čechách,Lužná,27051,Masarykovo náměstí,89,0
Lišany,Lišany,27052,Pražská,306,0
Krušovice,Krušovice,27053,Karlovarská,32,0
Řevničov,Řevničov,27054,Karlovarská,98,0
Pochvalov,Pochvalov,27055,,90,0
Lány,Lány,27061,Křivoklátská,433,0
Rynholec,Rynholec,27062,náměstí 1. máje,55,0
Mšec,Mšec,27064,Tyršovo náměstí,110,0
Srbeč,Srbeč,27065,,16,0
Nové Strašecí,Nové Strašecí,27101,U Školy,119,0
Kladno 1,Kladno,27201,Poštovní náměstí,2357,0
Kladno 4,Kladno,27204,Petrohradská,3112,0
Kladno 8,Kladno,27208,Jerevanská,2671,0
Kamenné Žehrovice,Kamenné Žehrovice,27301,Karlovarská třída,6,0
Tuchlovice,Tuchlovice,27302,U Staré školy,83,0
Stochov,Stochov,27303,Mírové náměstí,264,0
Kačice,Kačice,27304,Masarykova,20,0
Smečno,Smečno,27305,náměstí T. G. Masaryka,12,0
Libušín,Libušín,27306,Hálkova,140,0
Vinařice u Kladna,Vinařice,27307,V. ulice,250,0
Pchery,Pchery,27308,5. května,145,0
Kladno 7,Kladno,27309,28. října,563,0
Hospozín,Hospozín,27322,,176,0
Černuc,Černuc,27323,,17,0
Velvary,Velvary,27324,náměstí Krále Vladislava,219,0
Zvoleněves,Zvoleněves,27325,,274,0
Olovnice,Olovnice,27326,U Rybníka,45,0
Otvovice,Otvovice,27327,,34,0
Zákolany,Zákolany,27328,,55,0
Koleč,Koleč,27329,,103,0
Brandýsek,Brandýsek,27341,Slánská,62,0
Stehelčeves,Stehelčeves,27342,Hlavní,43,0
Buštěhrad,Buštěhrad,27343,Kladenská,271,12
Hřebeč,Hřebeč,27345,Kladenská,1,0
Unhošť,Unhošť,27351,tř. Dr. Beneše,252,0
Hostouň u Prahy,Hostouň,27353,Hájecká,315,0
Lidice,Lidice,27354,10. června 1942,161,0
Velká Dobrá,Velká Dobrá,27361,Karlovarská,15,0
Družec,Družec,27362,Hlavní,42,0
Bratronice,Bratronice,27363,Hlavní,35,0
Doksy u Kladna,Doksy,27364,Sokolská,305,0
Zlonice,Zlonice,27371,Komenského,98,0
Vraný,Vraný,27373,,9,0
Klobuky,Klobuky,27374,9. května,187,0
Třebíz,Třebíz,27375,,57,0
Pozdeň,Pozdeň,27376,,95,0
Řisuty,Řisuty,27378,,84,0
Tuřany u Slaného,Tuřany,27379,,10,0
Slaný 1,Slaný,27401,Masarykovo náměstí,1004,18
Mělník 1,Mělník,27601,Tyršova,100,12
Dolní Beřkovice,Dolní Beřkovice,27701,,317,0
Horní Počaply,Horní Počaply,27703,,252,0
Cítov,Cítov,27704,,273,0
Spomyšl,Spomyšl,27705,,120,0
Lužec nad Vltavou,Lužec nad Vltavou,27706,9. května,112,0
Vraňany,Vraňany,27707,,211,0
Ledčice,Ledčice,27708,,214,0
Neratovice,Neratovice,27711,Mládežnická,1357,0
Kostelec nad Labem,Kostelec nad Labem,27713,U Pošty,845,0
Dřísy,Dřísy,27714,Poštovní,260,0
Tišice,Tišice,27715,Mělnická,4,0
Všetaty,Všetaty,27716,T. G. Masaryka,308,0
Libiš,Libiš,27717,Mělnická,579,0
Liběchov,Liběchov,27721,Rumburská,40,0
Kokořín,Kokořín,27723,,52,0
Vysoká u Mělníka,Vysoká,27724,,85,0
Velký Borek,Velký Borek,27731,Vrutická,207,0
Byšice,Byšice,27732,Nádražní,19,0
Řepín,Řepín,27733,Hlavní,3,0
Nebužely,Nebužely,27734,,142,0
Mšeno,Mšeno,27735,náměstí Míru,15,0
Lobeč,Lobeč,27736,,22,0
Chorušice,Chorušice,27737,,89,0
Mělnické Vtelno,Mělnické Vtelno,27738,Mělnická,98,0
Kly,Kly,27741,,375,0
Obříství,Obříství,27742,Svatopluka Čecha,18,0
Chlumín,Chlumín,27743,,44,0
Vojkovice u Kralup nad Vltavou,Vojkovice,27744,,110,0
Úžice u Kralup nad Vltavou,Úžice,27745,Hlavní,150,0
Veltrusy,Veltrusy,27746,Palackého,97,0
Nelahozeves,Nelahozeves,27751,Školní,3,0
Nová Ves u Mělníka,Nová Ves,27752,,116,0
Kralupy nad Vltavou 1,Kralupy nad Vltavou,27801,Nerudova,880,9
Kolín 1,Kolín,28001,náměstí Republiky,241,0
Kolín 2,Kolín,28002,Pod Hroby,541,0
Velim,Velim,28101,Palackého,452,0
Cerhenice,Cerhenice,28102,Nádražní,228,0
Radim u Kolína,Radim,28103,,6,0
Plaňany,Plaňany,28104,Pražská,29,0
Vitice,Vitice,28106,,95,0
Svojšice u Kolína,Svojšice,28107,,109,0
Červené Pečky,Červené Pečky,28121,Dr. Dvořáka,38,0
Starý Kolín,Starý Kolín,28123,Náměstí,117,0
Konárovice,Konárovice,28125,Na Rynku,11,0
Týnec nad Labem,Týnec nad Labem,28126,Masarykovo náměstí,87,0
Krakovany v Čechách,Krakovany,28127,,206,0
Radovesnice,Radovesnice II,28128,,215,0
Žiželice nad Cidlinou,Žiželice,28129,Masarykovo náměstí,25,0
Ohaře,Ohaře,28130,,34,0
Ratboř,Ratboř,28141,Komenského,21,0
Bečváry,Bečváry,28143,,25,0
Zásmuky,Zásmuky,28144,Komenského náměstí,134,0
Horní Kruty,Horní Kruty,28146,,54,0
Velký Osek,Velký Osek,28151,9. května,120,0
Kouřim,Kouřim,28161,Mírové náměstí,145,0
Oleška u Českého Brodu,Oleška,28162,,1,0
Kostelec nad Černými Lesy,Kostelec nad Černými lesy,28163,Pražská,455,0
Jevany,Jevany,28166,Náměstí,10,0
Stříbrná Skalice,Stříbrná Skalice,28167,K radnici,20,0
Rostoklaty,Rostoklaty,28171,,4,0
Český Brod,Český Brod,28201,náměstí Arnošta z Pardubic,45,0
Kutná Hora 1,Kutná Hora,28401,Masarykova,148,0
Miskovice,Miskovice,28501,,26,0
Suchdol,Suchdol,28502,,66,0
Uhlířské Janovice,Uhlířské Janovice,28504,Komenského,400,0
Sázava,Sázava,28506,náměstí Voskovce a Wericha,356,0
Rataje nad Sázavou,Rataje nad Sázavou,28507,Zámecká,1,0
Kácov,Kácov,28509,,14,0
Čestín,Čestín,28510,,28,0
Nepoměřice,Nepoměřice,28511,,56,0
Zbraslavice,Zbraslavice,28521,,225,0
Zruč nad Sázavou 1,Zruč nad Sázavou,28522,Tomáše Bati,1012,0
Vlastějovice,Vlastějovice,28523,,4,0
Bohdaneč,Bohdaneč,28525,,97,0
Nové Dvory u Kutné Hory,Nové Dvory,28531,Masarykovo náměstí,11,0
Hlízov,Hlízov,28532,,163,0
Církvice u Kutné Hory,Církvice,28533,,6,0
Malešov,Malešov,28541,,45,0
Červené Janovice,Červené Janovice,28542,,102,0
Paběnice,Paběnice,28543,,16,0
Kluky u Kutné Hory,Kluky,28545,,100,0
Úmonín,Úmonín,28546,,31,0
Křesetice,Křesetice,28547,,148,0
Žleby,Žleby,28561,Zámecké náměstí,4,0
Hostovlice u Čáslavě,Hostovlice,28562,,25,0
Tupadly,Tupadly,28563,,82,0
Vlkaneč,Vlkaneč,28564,,44,0
Zbýšov v Čechách,Zbýšov,28565,,72,0
Vrdy,Vrdy,28571,Školská,106,0
Bílé Podolí,Bílé Podolí,28572,,14,0
Horušice,Horušice,28573,,23,0
Záboří nad Labem,Záboří nad Labem,28574,Školní,164,0
Žehušice,Žehušice,28575,V Chaloupkách,123,0
Chotusice,Chotusice,28576,,61,0
Čáslav,Čáslav,28601,Masarykova,204,44
Nymburk 1,Nymburk,28801,Náměstí Přemyslovců,127,5
Dymokury,Dymokury,28901,Revoluční,97,0
Kněžice u Městce Králové,Kněžice,28902,,191,0
Městec Králové,Městec Králové,28903,T. G. Masaryka,638,0
Opočnice,Opočnice,28904,,80,0
Žehuň,Žehuň,28905,,11,0
Sány,Sány,28906,9. května,209,0
Libice nad Cidlinou,Libice nad Cidlinou,28907,Husova,4,0
Běrunice,Běrunice,28908,Hlavní,136,0
Pečky,Pečky,28911,Masarykovo náměstí,38,0
Sadská,Sadská,28912,Pražská,534,0
Poříčany,Poříčany,28914,Nádražní,90,0
Kounice,Kounice,28915,,663,0
Přerov nad Labem,Přerov nad Labem,28916,,300,0
Semice,Semice,28917,,228,0
Kostomlaty nad Labem,Kostomlaty nad Labem,28921,K Nádraží,403,0
Lysá nad Labem,Lysá nad Labem,28922,Sokolská,40,1
Milovice nad Labem 1,Milovice,28923,Poštovní,156,9
Milovice nad Labem 3,Milovice,28924,Lesní,624,0
Straky,Straky,28925,,215,0
Stará Lysá,Stará Lysá,28926,,56,0
Bobnice,Bobnice,28931,Průběžná,31,0
Oskořínek,Oskořínek,28932,Novodvorská,100,0
Křinec,Křinec,28933,Náměstí,33,0
Rožďalovice,Rožďalovice,28934,Náměstí,257,0
Košík,Košík,28935,,25,0
Mcely,Mcely,28936,,51,0
Loučeň,Loučeň,28937,Za Poštou,97,0
Pňov,Pňov-Předhradí,28941,Husova,37,0
Poděbrady 1,Poděbrady,29001,Jiráskova,740,6
Sokoleč,Sokoleč,29008,Kolínská,424,0
Mladá Boleslav 1,Mladá Boleslav,29301,Komenského náměstí,95,4
Mladá Boleslav 3,Mladá Boleslav,29303,tř. Václava Klementa,822,0
Kosmonosy,Kosmonosy,29306,Debřská,223,1
Josefův Důl u Mladé Boleslavě,Josefův Důl,29307,,7,0
Bakov nad Jizerou,Bakov nad Jizerou,29401,Boleslavská,3,0
Kněžmost,Kněžmost,29402,Na Rynku,51,0
Obruby,Obruby,29403,,15,0
Dolní Bousov,Dolní Bousov,29404,náměstí T. G. Masaryka,122,0
Dlouhá Lhota u Mladé Boleslavě,Dlouhá Lhota,29405,,29,0
Březno u Mladé Boleslavě,Březno,29406,,50,0
Loukov u Mnichova Hradiště,Loukov,29411,,56,0
Žďár u Mnichova Hradiště,Žďár,29412,,20,0
Mohelnice nad Jizerou,Mohelnice nad Jizerou,29413,,38,0
Jivina u Mnichova Hradiště,Jivina,29414,,46,0
Klášter Hradiště nad Jizerou,Klášter Hradiště nad Jizerou,29415,,96,0
Dolní Krupá,Dolní Krupá,29416,,55,0
Bělá pod Bezdězem,Bělá pod Bezdězem,29421,Masarykovo náměstí,25,0
Čistá,Čistá,29423,,195,0
Březovice u Mladé Boleslavě,Březovice,29424,,84,0
Katusice,Katusice,29425,náměstí Budovatelů,4,0
Skalsko,Skalsko,29426,,89,0
Velké Všelisy,Velké Všelisy,29427,,81,0
Chotětov,Chotětov,29428,Husovo náměstí,31,0
Bezno,Bezno,29429,Boleslavská,154,0
Dolní Cetno,Niměřice,29430,,18,0
Krnsko,Krnsko,29431,,63,0
Dobrovice,Dobrovice,29441,Palackého náměstí,23,0
Luštěnice,Luštěnice,29442,Pod Humny,7,0
Čachovice u Mladé Boleslavě,Čachovice,29443,6. května,74,0
Jabkenice,Jabkenice,29445,,136,0
Semčice,Semčice,29446,,41,0
Ledce u Mladé Boleslavi,Ledce,29447,,110,0
Domousnice,Domousnice,29448,,19,0
Benátky nad Jizerou 1,Benátky nad Jizerou,29471,Husovo náměstí,41,34
Brodce nad Jizerou,Brodce,29473,Dobrovická,58,0
Předměřice nad Jizerou,Předměřice nad Jizerou,29474,,132,0
Sojovice,Sojovice,29475,,33,0
Kostelní Hlavno,Kostelní Hlavno,29476,,136,0
Mečeříž,Mečeříž,29477,,50,0
Dolní Slivno,Dolní Slivno,29478,,42,0
Kropáčova Vrutice,Kropáčova Vrutice,29479,,30,0
Mnichovo Hradiště,Mnichovo Hradiště,29501,Masarykovo náměstí,239,0
Plzeň 1,Plzeň,30100,Solní,260,20
Plzeň 8,Plzeň,30800,Habrmannova,2260,33
Plzeň 9,Plzeň,30900,Písecká,972,1
Plzeň 12,Plzeň,31200,Masarykova,912,93
Plzeň 14,Plzeň,31400,Prostřední,161,48
Božkov,Plzeň,31500,Sušická,148,29
Plzeň 16,Plzeň,31600,Skupova,490,24
Plzeň 18,Plzeň,31800,Macháčkova,926,22
Plzeň 20,Plzeň,32000,Klatovská třída,2524,127
Plzeň 21,Plzeň,32100,Klatovská,96,243
Plzeň 22,Plzeň,32200,Průkopníků,465,2a
Plzeň 23,Plzeň,32300,alej Svobody,1274,21
Plzeň 25,Plzeň,32500,Družstevníků,9,2
Plzeň 28,Plzeň,32800,Rokycanská,1385,130
Plzeň 29,Plzeň,32900,Chotíkovská,72,14
Kyšice,Kyšice,33001,Horní Náves,136,0
Dýšina,Dýšina,33002,Náměstí Míru,30,0
Chrást u Plzně,Chrást,33003,tř. Čs. odboje,29,0
Hromnice,Hromnice,33004,,16,0
Dobříč,Dobříč,33005,,100,0
Druztová,Druztová,33007,,1,0
Zruč-Senec,Zruč-Senec,33008,Plzeňská,100,0
Třemošná,Třemošná,33011,Plzeňská,1045,0
Horní Bříza,Horní Bříza,33012,Třída 1. máje,708,0
Trnová,Trnová,33013,,9,0
Ledce,Ledce,33014,,268,0
Všeruby u Plzně,Všeruby,33016,,2,0
Chotíkov,Chotíkov,33017,,118,0
Líně,Líně,33021,Plzeňská,145,0
Zbůch,Zbůch,33022,Náměstí,205,0
Nýřany,Nýřany,33023,Antonína Uxy,520,0
Heřmanova Huť,Heřmanova Huť,33024,Revoluční,37,0
Blatnice u Plzně,Blatnice,33025,,45,0
Tlučná,Tlučná,33026,Hlavní,128,0
Vejprnice,Vejprnice,33027,Tylova,95,0
Kozolupy,Kozolupy,33032,,261,0
Město Touškov,Město Touškov,33033,Čemínská,26,0
Úlice,Úlice,33034,,101,0
Líšťany,Líšťany,33035,,86,0
Pernarec,Pernarec,33036,,134,0
Úněšov,Úněšov,33038,,76,0
Krsy,Krsy,33039,,51,0
Úterý,Úterý,33040,,1,0
Bezvěrov,Bezvěrov,33041,,80,0
Plasy,Plasy,33101,Plzeňská,516,0
Kralovice,Kralovice,33141,Masarykovo náměstí,93,0
Kozojedy,Kozojedy,33142,,100,0
Chříč,Chříč,33143,,26,0
Kožlany,Kožlany,33144,Pražská,38,0
Kaznějov,Kaznějov,33151,Poštovní,424,0
Dolní Bělá,Dolní Bělá,33152,,112,0
Hvozd u Plas,Hvozd,33153,,65,0
Mladotice,Mladotice,33161,,14,0
Manětín,Manětín,33162,,150,0
Nečtiny,Nečtiny,33163,,188,0
Žihle,Žihle,33165,,226,0
Tymákov,Tymákov,33201,,40,0
Starý Plzenec,Starý Plzenec,33202,Baslova,1081,0
Šťáhlavy,Šťáhlavy,33203,Dr. Holuba,44,0
Nezvěstice,Nezvěstice,33204,,277,0
Chválenice,Chválenice,33205,,24,0
Štěnovice,Štěnovice,33209,Čižická,133,0
Hradec u Stoda,Hradec,33211,,52,0
Chotěšov,Chotěšov,33214,Čapkova,219,0
Stod,Stod,33301,Stříbrská,80,0
Mobilní pošta 31,Opava,33333,Partyzánská,1521,7
Přeštice,Přeštice,33401,Masarykovo náměstí,321,0
Dobřany,Dobřany,33441,Náměstí T. G. M.,2,0
Chlumčany u Přeštic,Chlumčany,33442,Nové Sídliště,363,0
Dnešice,Dnešice,33443,,29,0
Dolní Lukavice,Dolní Lukavice,33444,,142,0
Řenče,Řenče,33445,,54,0
Merklín u Přeštic,Merklín,33452,U Zámku,253,0
Horšice,Horšice,33455,,7,0
Nepomuk 1,Nepomuk,33501,Plzeňská,162,0
Nepomuk 3,Nepomuk,33503,Blatenská,135,0
Vrčeň,Vrčeň,33541,,1,0
Dožice,Mladý Smolivec,33543,,74,0
Kasejovice,Kasejovice,33544,,184,0
Oselce,Oselce,33546,,82,0
Nekvasovy,Nekvasovy,33547,,102,0
Měcholupy u Blovic,Měcholupy,33551,,76,0
Žinkovy,Žinkovy,33554,,84,0
Neurazy,Neurazy,33555,,61,0
Spálené Poříčí,Spálené Poříčí,33561,Náměstí Svobody,40,0
Nové Mitrovice,Nové Mitrovice,33563,,136,0
Čížkov u Blovic,Čížkov,33564,,30,0
Blovice,Blovice,33601,Jirotova,,0
Rokycany 1,Rokycany,33701,Jiráskova,247,0
Holoubkov,Holoubkov,33801,,48,0
Mýto v Čechách,Mýto,33805,Náměstí,109,0
Cheznovice,Cheznovice,33806,,241,0
Kařez,Kařez,33807,,28,0
Zbiroh,Zbiroh,33808,Československé armády,535,0
Terešov,Terešov,33810,,108,0
Mlečice,Mlečice,33811,,11,0
Zvíkovec,Zvíkovec,33813,,17,0
Osek u Rokycan,Osek,33821,,18,0
Volduchy,Volduchy,33822,,92,0
Břasy 1,Břasy,33824,,18,0
Újezd u Svatého Kříže,Újezd u Svatého Kříže,33826,,27,0
Hlohovice,Hlohovice,33827,,45,0
Radnice u Rokycan,Radnice,33828,Plzeňská,49,0
Klabava,Klabava,33841,,17,0
Hrádek u Rokycan,Hrádek,33842,1. máje,174,0
Mirošov 1,Mirošov,33843,Skořická,83,0
Dobřív,Dobřív,33844,,305,0
Strašice,Strašice,33845,,566,0
Mirošov 2,Mirošov,33847,Skořická,314,0
Klatovy 1,Klatovy,33901,Nádražní,89,0
Běšiny,Běšiny,34001,,150,0
Železná Ruda,Železná Ruda,34004,1. máje,124,0
Švihov,Švihov,34012,náměstí Dr. E. Beneše,38,0
Chudenice,Chudenice,34014,Mírové náměstí,246,0
Poleň,Poleň,34015,,47,0
Dolany u Klatov,Dolany,34016,,188,0
Janovice nad Úhlavou,Janovice nad Úhlavou,34021,Sídliště,297,0
Nýrsko,Nýrsko,34022,Rybářská,129,0
Dešenice,Dešenice,34023,,153,0
Strážov na Šumavě,Strážov,34024,,1,0
Mochtín,Mochtín,34032,,16,0
Číhaň,Číhaň,34033,,26,0
Plánice,Plánice,34034,Náměstí,167,0
Měčín,Měčín,34037,Farní,43,0
Předslav,Předslav,34038,,124,0
Dlažov,Dlažov,34042,,17,0
Horažďovice,Horažďovice,34101,Mírové náměstí,3,0
Hrádek,Hrádek,34141,,85,0
Kolinec,Kolinec,34142,,55,0
Velký Bor,Velký Bor,34151,,103,0
Chanovice,Chanovice,34152,,36,0
Pačejov,Pačejov,34153,,199,0
Myslív,Myslív,34154,,30,0
Rabí,Rabí,34161,,15,0
Žichovice,Žichovice,34162,,190,0
Žihobce,Žihobce,34163,,73,0
Nezdice na Šumavě,Nezdice na Šumavě,34164,,173,0
Strašín u Sušice,Strašín,34165,,16,0
Soběšice u Sušice,Soběšice,34166,,125,0
Hradešice,Hradešice,34172,,81,0
Nalžovské Hory,Nalžovské Hory,34173,,96,0
Zavlekov,Zavlekov,34174,,56,0
Hartmanice,Hartmanice,34181,,128,0
Petrovice u Sušice,Petrovice u Sušice,34182,,5,0
Velhartice,Velhartice,34183,,63,0
Dlouhá Ves u Sušice,Dlouhá Ves,34191,,155,0
Kašperské Hory,Kašperské Hory,34192,Dlouhá,94,0
Rejštejn,Rejštejn,34193,Kašperskohorská,27,0
Srní,Srní,34194,,113,0
Prášily,Prášily,34195,,110,0
Sušice 1,Sušice,34201,Havlíčkova,16,0
Sušice 2,Sušice,34202,Nádražní,223,0
Domažlice 1,Domažlice,34401,Msgre. B. Staška,71,0
Mrákov,Mrákov,34501,,105,0
Kout na Šumavě,Kout na Šumavě,34502,,1,0
Kdyně,Kdyně,34506,Náměstí,139,0
Všeruby u Kdyně,Všeruby,34507,,77,0
Pocinovice,Pocinovice,34509,,72,0
Úsilov,Úsilov,34511,,33,0
Úboč,Úboč,34512,,60,0
Draženov,Draženov,34520,,70,0
Meclov,Meclov,34521,,90,0
Poběžovice,Poběžovice,34522,náměstí Míru,67,0
Hostouň u Horšovského Týna,Hostouň,34525,Chodské náměstí,12,0
Bělá nad Radbuzou,Bělá nad Radbuzou,34526,Náměstí,200,0
Babylon,Babylon,34531,,27,0
Česká Kubice,Česká Kubice,34532,,121,0
Trhanov,Trhanov,34533,,63,0
Klenčí pod Čerchovem,Klenčí pod Čerchovem,34534,,118,0
Postřekov,Postřekov,34535,,270,0
Nemanice,Nemanice,34536,,84,0
Koloveč,Koloveč,34543,Domažlická,7,0
Osvračín,Osvračín,34544,,66,0
Blížejov,Blížejov,34545,Poštovní,81,0
Milavče,Milavče,34546,,9,0
Zahořany,Zahořany,34547,,7,0
Staňkov,Staňkov,34561,Plzeňská,377,0
Holýšov,Holýšov,34562,třída 1. máje,265,0
Horšovský Týn,Horšovský Týn,34601,Pivovarská,219,0
Tachov 1,Tachov,34701,Hornická,1596,0
Staré Sedliště,Staré Sedliště,34801,,359,0
Bor u Tachova,Bor,34802,náměstí Republiky,110,0
Staré Sedlo u Tachova,Staré Sedlo,34804,,60,0
Stráž,Stráž,34805,,21,0
Přimda,Přimda,34806,Borská,232,0
Rozvadov,Rozvadov,34807,,230,0
Třemešné pod Přimdou,Třemešné,34808,,16,0
Chodová Planá,Chodová Planá,34813,Pohraniční stráže,129,0
Planá u Mariánských Lázní,Planá,34815,náměstí Svobody,58,0
Halže,Halže,34816,U Parku,210,0
Stříbro,Stříbro,34901,28. října,217,0
Cebiv,Cebiv,34951,,91,0
Konstantinovy Lázně,Konstantinovy Lázně,34952,Plzeňská,87,0
Bezdružice,Bezdružice,34953,ČSA,180,0
Lestkov,Lestkov,34954,,210,0
Svojšín,Svojšín,34956,,135,0
Ošelín,Ošelín,34957,,36,0
Černošín,Černošín,34958,Zahradní,86,0
Kladruby u Stříbra,Kladruby,34961,Stříbrská,239,0
Kostelec u Stříbra,Kostelec,34962,,91,0
Trpísty,Trpísty,34972,,18,0
Cheb 1,Cheb,35001,Šlikova,2423,15
Cheb 2,Cheb,35002,Riegerova,1302,60
Františkovy Lázně,Františkovy Lázně,35101,Lidická,445,8
Nebanice,Nebanice,35112,,7,0
Krásná,Krásná,35122,,196,0
Podhradí,Podhradí,35123,,319,0
Hranice u Aše,Hranice,35124,U pošty,760,0
Libá,Libá,35131,,220,0
Hazlov,Hazlov,35132,,323,0
Vojtanov,Vojtanov,35133,Nádražní čtvrť,72,0
Skalná,Skalná,35134,Česká,430,0
Plesná u Chebu,Plesná,35135,5. května,301,0
Nový Kostel,Nový Kostel,35136,,27,0
Luby u Chebu,Luby,35137,Revoluční,510,0
Aš 1,Aš,35201,Poštovní náměstí,911,0
Mariánské Lázně 1,Mariánské Lázně,35301,Poštovní,160,17
Velká Hleďsebe,Velká Hleďsebe,35471,Pohraniční stráže,105,0
Drmoul,Drmoul,35472,Plzeňská,237,0
Tři Sekery,Tři Sekery,35473,,82,0
Mnichov,Mnichov,35483,,1,0
Lázně Kynžvart,Lázně Kynžvart,35491,5. května,268,0
Dolní Žandov,Dolní Žandov,35493,,273,0
Sokolov 1,Sokolov,35601,Karla Havlíčka Borovského,1420,0
Dolní Rychnov,Dolní Rychnov,35604,Dobrovského,173,0
Rotava 1,Rotava,35701,Sídliště,648,0
Rotava 2,Rotava,35702,Kraslická,284,0
Svatava,Svatava,35703,ČSA,228,0
Lomnice,Lomnice,35704,Kraslická,124,0
Jindřichovice v Krušných horách,Jindřichovice,35705,,170,0
Šindelová,Šindelová,35706,,117,0
Oloví,Oloví,35707,ČSA,286,0
Krajková,Krajková,35708,,295,0
Habartov,Habartov,35709,náměstí Přátelství,112,0
Stříbrná,Stříbrná,35721,,75E,0
Bublava,Bublava,35722,,686,0
Horní Slavkov,Horní Slavkov,35731,Nová,600,0
Loket,Loket,35733,T. G. Masaryka,99,39
Nové Sedlo u Lokte,Nové Sedlo,35734,Masarykova,520,0
Chodov u Karlových Var 1,Chodov,35735,Husova,786,0
Královské Poříčí,Královské Poříčí,35741,Lázeňská,159,0
Vřesová u Sokolova,Vřesová,35743,,3,0
Vintířov u Sokolova,Vintířov,35744,,72,0
Staré Sedlo u Sokolova,Staré Sedlo,35746,Sokolovská,195,0
Krásno nad Teplou,Krásno,35747,Radniční,1,0
Kynšperk nad Ohří,Kynšperk nad Ohří,35751,Dlouhá,82,2
Libavské Údolí,Libavské Údolí,35753,,111,0
Chlum Svaté Maří,Chlum Svaté Maří,35754,náměstí J. W. Goetheho,26,0
Bukovany u Sokolova,Bukovany,35755,,156,0
Citice,Citice,35756,,166,0
Březová u Sokolova,Březová,35761,náměstí Míru,230,0
Rovná u Sokolova,Rovná,35765,,42,0
Kraslice,Kraslice,35801,náměstí 28. října,1705,4
Karlovy Vary 1,Karlovy Vary,36001,T. G. Masaryka,559,1
Karlovy Vary 5,Karlovy Vary,36005,Sokolovská,243,92
Karlovy Vary 6,Karlovy Vary,36006,Chebská,370,81a
Karlovy Vary 17,Karlovy Vary,36017,Školní,742,7a
Jenišov,Jenišov,36211,,88,0
Stanovice,Stanovice,36213,,44,0
Kolová,Kolová,36214,,16,0
Březová u Karlových Var,Březová,36215,Hamerská,51,81
Nejdek 1,Nejdek,36221,Poštovní,972,0
Černava,Černava,36223,,80,0
Nové Hamry,Nové Hamry,36224,,260,0
Nová Role,Nová Role,36225,Chodovská,236,6
Božičany,Božičany,36226,,96,0
Otovice u Karlových Var,Otovice,36232,Hroznětínská,130,0
Hroznětín,Hroznětín,36233,Krušnohorské náměstí,1,0
Merklín u Karlových Var,Merklín,36234,,49,0
Abertamy,Abertamy,36235,Rooseweltova,251,0
Pernink,Pernink,36236,T. G. Masaryka,1,0
Horní Blatná,Horní Blatná,36237,náměstí Sv. Vavřince,118,0
Potůčky,Potůčky,36238,,85,0
Jáchymov,Jáchymov,36251,K Lanovce,1048,0
Sadov,Sadov,36261,,31,0
Boží Dar,Boží Dar,36262,,1,0
Dalovice,Dalovice,36263,Hlavní,131,23
Kyselka,Kyselka,36272,,178,0
Vojkovice nad Ohří,Vojkovice,36273,,31,0
Stráž nad Ohří,Stráž nad Ohří,36274,,21,0
Ostrov nad Ohří,Ostrov,36301,Hlavní třída,800,0
Toužim,Toužim,36401,náměstí Jiřího z Poděbrad,36,0
Štědrá,Štědrá,36451,,83,0
Žlutice,Žlutice,36452,Velké náměstí,147,0
Chyše,Chyše,36453,Žižkovo náměstí,18,0
Valeč v Čechách,Valeč,36455,Náměstí,119,0
Verušičky,Verušičky,36456,,5,0
Teplá u Toužimě,Teplá,36461,Klášterní,156,0
Otročín,Otročín,36463,,61,0
Bečov nad Teplou,Bečov nad Teplou,36464,náměstí 5. května,2,0
Útvina,Útvina,36466,,155,0
Bochov,Bochov,36471,Školní,47,0
Stružná,Stružná,36472,,83,0
České Budějovice 1,České Budějovice,37001,Senovážné náměstí,240,1
České Budějovice 4,České Budějovice,37004,Pražská tř.,2304,69
České Budějovice 5,České Budějovice,37005,Ant. Barcala,404,38
České Budějovice 6,České Budějovice,37006,E. Beneše,656,17
České Budějovice 7,České Budějovice,37007,Boršovská,1779,2
České Budějovice 8,České Budějovice,37008,náměstí Švabinského,960,9
České Budějovice 11,České Budějovice,37011,Fr. Ondříčka,1243,46
České Budějovice 12,České Budějovice,37012,K. Šafáře,887,64
Temelín,Temelín,37301,,104,0
Neznašov,Všemyslice,37302,,9,0
Litvínovice,Litvínovice,37303,,39,0
Chrášťany u Týna nad Vltavou,Chrášťany,37304,,79,0
Temelín-elektrárna,Temelín,37305,,,0
Srubec,Srubec,37310,Ledenická,24,0
Ledenice,Ledenice,37311,Náměstí,71,0
Borovany,Borovany,37312,Žižkovo náměstí,15,0
Komařice,Komařice,37314,,76,0
Nová Ves,Nová Ves,37315,,30,0
Dobrá Voda u Českých Budějovic,Dobrá Voda u Českých Budějovic,37316,Lázeňská,2321,42
Slavče,Slavče,37321,,26,0
Ločenice,Ločenice,37322,,165,0
Svatý Jan nad Malší,Svatý Jan nad Malší,37323,,106,0
Římov,Římov,37324,Náměstí J. Gurreho,164,0
Olešnice,Olešnice,37331,,1,0
Jílovice,Jílovice,37332,,138,0
Nové Hrady v jižních Čechách,Nové Hrady,37333,5. května,56,0
Horní Stropnice,Horní Stropnice,37335,,68,0
Rychnov u Nových Hradů,Horní Stropnice,37336,,24,0
Hluboká nad Vltavou,Hluboká nad Vltavou,37341,Masarykova,40,0
Zliv,Zliv,37344,Jiráskova,397,0
Pištín,Pištín,37346,,56,0
Sedlec,Sedlec,37347,,48,0
Dívčice,Dívčice,37348,,41,0
Mydlovary,Mydlovary,37349,,19,0
Olešník,Olešník,37350,,15,0
Dříteň,Dříteň,37351,,1,0
Hrdějovice,Hrdějovice,37361,Dlouhá,221,0
Chotýčany u Českých Budějovic,Chotýčany,37362,,21,0
Ševětín,Ševětín,37363,náměstí Šimona Lomnického,2,0
Dynín,Dynín,37364,,48,0
Dolní Bukovsko,Dolní Bukovsko,37365,náměstí Jiráskovo,67,0
Žimutice,Žimutice,37366,,44,0
Borek,Borek,37367,Pražská,66,0
Rudolfov,Rudolfov,37371,Třeboňská,14,28
Lišov u Českých Budějovic,Lišov,37372,Nová,888,5a
Štěpánovice,Štěpánovice,37373,Vlkovická,154,0
Kamenný Újezd,Kamenný Újezd,37381,Náměstí,42,0
Boršov nad Vltavou,Boršov nad Vltavou,37382,Poříčská,248,0
Dubné,Dubné,37384,,33,0
Trhové Sviny,Trhové Sviny,37401,Bezručova,1000,0
Včelná,Včelná,37406,Husova,212,0
Týn nad Vltavou 1,Týn nad Vltavou,37501,Sakařova,757,0
Týn nad Vltavou 3,Týn nad Vltavou,37503,Orlická,539,0
Jindřichův Hradec 1,Jindřichův Hradec,37701,Husova,129,0
Jindřichův Hradec 4,Jindřichův Hradec,37704,sídliště Vajgar,599,0
Jindřichův Hradec 5,Jindřichův Hradec,37705,Kosmonautů,47,0
Lásenice,Lásenice,37801,,11,0
Stráž nad Nežárkou,Stráž nad Nežárkou,37802,náměstí Emy Destinnové,55,0
Majdalena,Majdalena,37803,,,0
Chlum u Třeboně,Chlum u Třeboně,37804,,12,0
Suchdol nad Lužnicí,Suchdol nad Lužnicí,37806,sídl. 9. května,710,0
Rapšach,Rapšach,37807,Londonská,320,0
Dvory nad Lužnicí,Dvory nad Lužnicí,37808,,63,0
Nová Ves nad Lužnicí,Nová Ves nad Lužnicí,37809,,87,0
České Velenice,České Velenice,37810,Revoluční,206,0
Lomnice nad Lužnicí,Lomnice nad Lužnicí,37816,náměstí 5. května,105,0
Novosedly nad Nežárkou,Novosedly nad Nežárkou,37817,,186,0
Kardašova Řečice,Kardašova Řečice,37821,Veselého,659,0
Deštná u Jindřichova Hradce,Deštná,37825,náměstí Míru,61,0
Lodhéřov,Lodhéřov,37826,,175,0
Horní Pěna,Horní Pěna,37831,,96,0
Číměř,Číměř,37832,,12,0
Nová Bystřice,Nová Bystřice,37833,Hradecká,269,0
Jarošov nad Nežárkou,Jarošov nad Nežárkou,37841,,84,0
Nová Včelnice,Nová Včelnice,37842,Na Hliněnce,457,0
Roseč,Roseč,37846,,84,0
Blažejov,Blažejov,37852,,38,0
Strmilov,Strmilov,37853,Náměstí,267,0
Studená,Studená,37856,náměstí Sv. J. Nepomuckého,49,0
Člunek,Člunek,37861,,21,0
Kunžak,Kunžak,37862,náměstí Komenského,235,0
Staré Hobzí,Staré Hobzí,37871,,116,0
Písečné,Písečné,37872,,145,0
Dešná,Dešná,37873,,69,0
Slavonice,Slavonice,37881,Horní náměstí,524,0
Staré Město pod Landštejnem,Staré Město pod Landštejnem,37882,,19,0
Český Rudolec,Český Rudolec,37883,,123,0
Budíškovice,Budíškovice,37891,,103,0
Budeč,Budeč,37892,,79,0
Třeboň,Třeboň,37901,Seifertova,588,0
Dačice,Dačice,38001,Göthova,71,0
Český Krumlov 1,Český Krumlov,38101,Latrán,193,0
Český Krumlov 2,Český Krumlov,38102,třída Míru,1,0
Dolní Třebonín,Dolní Třebonín,38201,,6,0
Zlatá Koruna,Zlatá Koruna,38202,,5,0
Křemže,Křemže,38203,Náměstí,14,0
Brloh,Brloh,38206,,23,0
Chvalšiny,Chvalšiny,38208,,38,0
Větřní,Větřní,38211,Šumavská,1,0
Světlík,Světlík,38216,,27,0
Rožmberk nad Vltavou,Rožmberk nad Vltavou,38218,,2,0
Kájov,Kájov,38221,Boletická,115,0
Hořice na Šumavě,Hořice na Šumavě,38222,,40,0
Černá v Pošumaví,Černá v Pošumaví,38223,,57,0
Horní Planá,Horní Planá,38226,Jiráskova,169,0
Polná na Šumavě,Polná na Šumavě,38229,,283,0
Velešín,Velešín,38232,Školní,501,0
Kaplice 1,Kaplice,38241,Tržní,84,0
Kaplice 2,Střítež,38242,,22,0
Dolní Dvořiště,Dolní Dvořiště,38272,,145,0
Vyšší Brod,Vyšší Brod,38273,Míru,150,0
Loučovice,Loučovice,38276,,288,0
Lipno nad Vltavou,Lipno nad Vltavou,38278,,37,0
Frymburk,Frymburk,38279,,178,0
Besednice,Besednice,38281,Náměstí,52,0
Benešov nad Černou,Benešov nad Černou,38282,,89,0
Pohorská Ves,Pohorská Ves,38283,,45,0
Malonty,Malonty,38291,,35,0
Rožmitál na Šumavě,Rožmitál na Šumavě,38292,,132,0
Horní Dvořiště,Horní Dvořiště,38293,,26,0
Prachatice,Prachatice,38301,Pivovarská,1118,0
Nebahovy,Nebahovy,38401,,79,0
Lhenice,Lhenice,38402,Školní,124,0
Ktiš,Ktiš,38403,,11,0
Chroboly,Chroboly,38404,,84,0
Netolice,Netolice,38411,Mírové Náměstí,208,0
Husinec,Husinec,38421,Prokopovo náměstí,43,0
Vlachovo Březí,Vlachovo Březí,38422,Sídliště,306,0
Dub,Dub,38425,,4,0
Strunkovice nad Blanicí,Strunkovice nad Blanicí,38426,,86,0
Vitějovice,Vitějovice,38427,,46,0
Lažiště,Lažiště,38432,,59,0
Záblatí,Záblatí,38433,,3,0
Zbytiny,Zbytiny,38441,,3,0
Lenora,Lenora,38442,,65,0
Strážný,Strážný,38443,,23,0
Stožec,Stožec,38444,,12,0
Volary,Volary,38451,Náměstí,25,0
Nová Pec,Nová Pec,38462,,41,0
Šumavské Hoštice,Šumavské Hoštice,38471,,64,0
Zdíkov,Zdíkov,38472,,213,0
Stachy,Stachy,38473,,342,0
Čkyně,Čkyně,38481,,135,0
Vacov,Vacov,38486,,29,0
Horní Vltavice,Horní Vltavice,38491,,119,0
Borová Lada,Borová Lada,38492,,41,0
Kvilda,Kvilda,38493,,7,0
Vimperk,Vimperk,38501,1. máje,195,4
Strakonice 1,Strakonice,38601,Podskalská,601,0
Volyně,Volyně,38701,náměstí Hrdinů,98,0
Malenice nad Volyňkou,Malenice,38706,Na Návsi,95,0
Katovice,Katovice,38711,Nádražní,134,0
Střelské Hoštice,Střelské Hoštice,38715,,83,0
Volenice,Volenice,38716,,15,0
Čestice,Čestice,38719,,64,0
Radomyšl,Radomyšl,38731,Maltézské náměstí,7,0
Sedlice u Blatné,Sedlice,38732,Palackého,46,0
Kadov u Blatné,Kadov,38733,,65,0
Záboří u Blatné,Záboří,38734,,87,0
Doubravice u Strakonic,Doubravice,38735,,43,0
Mečichov,Mečichov,38736,,118,0
Lnáře,Lnáře,38742,,74,0
Bělčice,Bělčice,38743,náměstí J. Kučery,11,0
Štěkeň,Štěkeň,38751,Na Městečku,150,0
Cehnice,Cehnice,38752,,76,0
Čepřovice,Čepřovice,38756,,58,0
Číčenice,Číčenice,38771,,97,0
Libějovice,Libějovice,38772,,26,0
Bavorov,Bavorov,38773,Náměstí Míru,17,0
Skočice,Skočice,38775,,44,0
Blatná,Blatná,38801,tř. T. G. Masaryka,293,0
Vodňany,Vodňany,38901,Kampanova,591,0
Tábor 2,Tábor,39002,U Bechyňské dráhy,2926,0
Tábor 3,Tábor,39003,Václava Soumara,2394,0
Sezimovo Ústí 2,Sezimovo Ústí,39102,náměstí Tomáše Bati,664,0
Planá nad Lužnicí,Planá nad Lužnicí,39111,Zákostelní,720,0
Myslkovice,Myslkovice,39116,,,0
Košice u Soběslavě,Košice,39117,,47,0
Choustník,Choustník,39118,,80,0
Radenín,Radenín,39120,,61,0
Turovec,Turovec,39121,,51,0
Tučapy u Soběslavě,Tučapy,39126,,19,0
Dírná,Dírná,39127,,35,0
Dražice,Dražice,39131,,165,0
Jistebnice,Jistebnice,39133,Náměstí,106,0
Borotín,Borotín,39135,,57,0
Sudoměřice u Tábora,Sudoměřice u Tábora,39136,,27,0
Chotoviny,Chotoviny,39137,Hlinická,103,0
Ratibořské Hory,Ratibořské Hory,39142,,42,0
Mladá Vožice,Mladá Vožice,39143,Husovo náměstí,123,0
Smilovy Hory,Smilovy Hory,39152,,70,0
Vodice,Vodice,39153,,20,0
Chýnov,Chýnov,39155,Gabrielovo náměstí,460,0
Opařany,Opařany,39161,,30,0
Stádlec,Stádlec,39162,,150,0
Bechyně,Bechyně,39165,náměstí T. G. Masaryka,147,0
Březnice u Bechyně,Březnice,39171,,47,0
Sudoměřice u Bechyně,Sudoměřice u Bechyně,39172,,88,0
Hlavatce,Hlavatce,39173,,57,0
Želeč,Želeč,39174,,143,0
Malšice,Malšice,39175,,54,0
Slapy,Slapy,39176,,33,0
Veselí nad Lužnicí 1,Veselí nad Lužnicí,39181,Třída Čs. armády,582,0
Borkovice,Borkovice,39191,,31,0
Soběslav,Soběslav,39201,tř. Dr. Edvarda Beneše,286,5
Pelhřimov,Pelhřimov,39301,Svatovítské náměstí,126,0
Rynárec,Rynárec,39401,,61,0
Horní Cerekev,Horní Cerekev,39403,Březinova,11,0
Nový Rychnov,Nový Rychnov,39404,,87,0
Vyskytná u Pelhřimova,Vyskytná,39405,,74,0
Kojčice,Kojčice,39409,,67,0
Cetoraz,Cetoraz,39411,,206,0
Obrataň,Obrataň,39412,,204,0
Kámen u Pacova,Kámen,39413,,2,0
Leskovice,Leskovice,39414,,51,0
Nová Cerekev,Nová Cerekev,39415,,44,0
Hořepník,Hořepník,39421,Nám. Prof. Bechyně,89,0
Košetice,Košetice,39422,,253,0
Křešín,Křešín,39424,,42,0
Lukavec,Lukavec,39426,náměstí Sv. Václava,67,0
Vyklantice,Vyklantice,39427,,24,0
Velká Chyška,Velká Chyška,39428,,94,0
Želiv,Želiv,39444,,320,0
Křelovice u Pelhřimova,Křelovice,39445,,26,0
Červená Řečice,Červená Řečice,39446,,91,0
Kaliště,Kaliště,39451,,53,0
Kejžlice,Kejžlice,39452,Ke Světlé,161,0
Senožaty,Senožaty,39456,,166,0
Koberovice,Koberovice,39459,,42,0
Božejov,Božejov,39461,,84,0
Libkova Voda,Libkova Voda,39462,,61,0
Častrov,Častrov,39463,,105,0
Počátky,Počátky,39464,Horní,87,0
Žirovnice,Žirovnice,39468,Havlíčkovo náměstí,223,0
Kamenice nad Lipou,Kamenice nad Lipou,39470,Družstevní,511,0
Bohdalín,Bohdalín,39491,,83,0
Mnich,Mnich,39492,,35,0
Chválkov,Mnich,39493,,55,0
Černovice u Tábora,Černovice,39494,Mariánské náměstí,718,0
Křeč,Křeč,39495,,95,0
Těmice u Kamenice nad Lipou,Těmice,39496,,53,0
Pacov,Pacov,39501,Žižkova,1100,0
Humpolec,Humpolec,39601,Havlíčkovo náměstí,839,0
Písek 1,Písek,39701,Žižkova třída,270,2
Písek 4,Písek,39704,nábřeží 1. máje,2404,0
Mirotice,Mirotice,39801,Náměstí Mikoláše Alše,21,0
Čimelice,Čimelice,39804,,281,0
Mirovice,Mirovice,39806,Masarykovo náměstí,23,0
Orlík nad Vltavou,Orlík nad Vltavou,39807,,27,0
Protivín,Protivín,39811,Masarykovo náměstí,32,0
Tálín,Tálín,39815,,11,0
Albrechtice nad Vltavou,Albrechtice nad Vltavou,39816,,79,0
Chřešťovice,Albrechtice nad Vltavou,39817,,16,0
Záhoří,Záhoří,39818,,9,0
Kluky,Kluky,39819,,140,0
Kestřany,Kestřany,39821,,149,0
Ražice,Ražice,39822,,89,0
Čížová,Čížová,39831,,75,0
Vráž,Vráž,39832,,52,0
Ostrovec,Ostrovec,39833,,69,0
Kučeř,Kučeř,39834,,82,0
Oslov,Oslov,39835,,86,0
Veselíčko,Veselíčko,39842,,24,0
Bernartice u Milevska,Bernartice,39843,Týnská,92,0
Slabčice,Slabčice,39847,,16,0
Jetětice,Jetětice,39848,,14,0
Sepekov,Sepekov,39851,,62,0
Nadějkov,Nadějkov,39852,náměstí Prokopa Chocholouška,19,0
Chyšky,Chyšky,39853,,31,0
Hrazánky,Hrazany,39854,,7,0
Kovářov,Kovářov,39855,,73,0
Kostelec nad Vltavou,Kostelec nad Vltavou,39858,,104,0
Hrejkovice,Hrejkovice,39859,,101,0
Milevsko 1,Milevsko,39901,J. A. Komenského,1190,0
Ústí nad Labem 1,Ústí nad Labem,40001,Masarykova,3120,34
Ústí nad Labem 3,Ústí nad Labem,40003,Žukovova,546,15
Trmice,Trmice,40004,Tyršova,869,0
Ústí nad Labem 6,Ústí nad Labem,40006,Truhlářova,1592,32
Ústí nad Labem 7,Ústí nad Labem,40007,Krčínova,841,9
Ústí nad Labem 10,Ústí nad Labem,40010,Všebořická,389,53
Ústí nad Labem 11,Ústí nad Labem,40011,Stříbrnická,3034,10
Dolní Zálezly,Dolní Zálezly,40301,Rudé armády,128,0
Řehlovice,Řehlovice,40313,,56,0
Chabařovice,Chabařovice,40317,Husovo náměstí,2,0
Velké Březno,Velké Březno,40323,Děčínská,136,0
Malečov,Malečov,40327,,36,0
Ústí nad Labem 16,Ústí nad Labem,40331,Seifertova,567,0
Povrly,Povrly,40332,Mírová,56,12
Velké Chvojno,Velké Chvojno,40334,,55,0
Libouchec,Libouchec,40335,,175,0
Tisá,Tisá,40336,,205,0
Petrovice u Ústí nad Labem,Petrovice,40337,,198,0
Telnice,Telnice,40338,,84,0
Chlumec u Ústí nad Labem,Chlumec,40339,Ústecká,255,0
Děčín 1,Děčín,40501,Oblouková,1420,2
Děčín 2,Děčín,40502,Podmokelská,148,1
Jílové u Děčína,Jílové,40701,Mírové náměstí,295,0
Dobkovice u Děčína,Dobkovice,40703,,123,0
Děčín 9,Děčín,40711,Studniční,414,0
Ludvíkovice,Ludvíkovice,40713,,71,0
Arnoltice u Děčína,Arnoltice,40714,,34,0
Srbská Kamenice,Srbská Kamenice,40715,,54,0
Jetřichovice,Jetřichovice,40716,,24,0
Hřensko,Hřensko,40717,,71,0
Česká Kamenice,Česká Kamenice,40721,Kostelní,138,0
Benešov nad Ploučnicí,Benešov nad Ploučnicí,40722,náměstí Míru,1,0
Františkov nad Ploučnicí,Františkov nad Ploučnicí,40723,,71,0
Valkeřice,Valkeřice,40724,,207,0
Verneřice,Verneřice,40725,Českolipská,294,0
Velká Bukovina,Velká Bukovina,40729,,178,0
Dobrná,Dobrná,40741,,26,0
Markvartice u Děčína,Markvartice,40742,,280,0
Chřibská,Chřibská,40744,,178,0
Kytlice,Kytlice,40745,,24,0
Krásná Lípa u Rumburka,Krásná Lípa,40746,Masarykova,246,6
Varnsdorf 1,Varnsdorf,40747,T. G. Masaryka,1587,0
Rybniště,Rybniště,40751,,230,0
Jiříkov,Jiříkov,40753,Náměstí,464,1
Dolní Podluží,Dolní Podluží,40755,,6,0
Jiřetín pod Jedlovou,Jiřetín pod Jedlovou,40756,Děčínská,103,0
Horní Podluží,Horní Podluží,40757,,2,0
Staré Křečany,Staré Křečany,40761,,555,0
Šluknov,Šluknov,40777,Karlova,322,0
Velký Šenov,Velký Šenov,40778,,403,0
Mikulášovice,Mikulášovice,40779,,14,0
Vilémov u Šluknova,Vilémov,40780,,288,0
Lipová u Šluknova,Lipová,40781,,422,0
Dolní Poustevna,Dolní Poustevna,40782,Sadová,220,0
Lobendava,Lobendava,40784,,203,0
Rumburk,Rumburk,40801,Františka Nohy,1096,3
Lovosice 1,Lovosice,41001,Osvoboditelů,1228,32
Žalhostice,Žalhostice,41101,,88,0
Libochovany,Libochovany,41103,,158,0
Štětí,Štětí,41108,Obchodní,538,0
Sulejovice,Sulejovice,41111,Náves,5,0
Čížkovice,Čížkovice,41112,Na sídlišti,267,0
Třebenice,Třebenice,41113,Sokolská,87,0
Třebívlice,Třebívlice,41115,Komenského náměstí,17,0
Klapý,Klapý,41116,,200,0
Libochovice,Libochovice,41117,náměstí 5. května,48,0
Budyně nad Ohří,Budyně nad Ohří,41118,Říhovo náměstí,124,0
Mšené-lázně,Mšené-lázně,41119,Prosek,174,0
Vrbičany,Vrbičany,41121,,35,0
Keblice,Keblice,41122,,68,0
Velemín,Velemín,41131,,90,0
Milešov u Lovosic,Velemín,41132,,16,0
Prackovice nad Labem,Prackovice nad Labem,41133,,54,0
Žitenice,Žitenice,41141,Pohořanská,118,0
Ploskovice,Ploskovice,41142,,44,0
Úštěk,Úštěk,41145,Nádražní,117,0
Liběšice u Litoměřic,Liběšice,41146,,125,0
Polepy,Polepy,41147,,205,0
Křešice,Křešice,41148,Nádražní,84,0
Terezín,Terezín,41155,Máchova,178,0
Bohušovice nad Ohří,Bohušovice nad Ohří,41156,Husovo náměstí,42,0
Sukorady,Snědovice,41162,,5,0
Vrbice u Roudnice nad Labem,Vrbice,41164,Hlavní,47,0
Chodouny,Chodouny,41171,,20,0
Hoštka u Roudnice nad Labem,Hoštka,41172,náměstí Svobody,18,0
Snědovice,Snědovice,41174,,99,0
Brozany nad Ohří,Brozany nad Ohří,41181,Palackého náměstí,75,0
Doksany,Doksany,41182,,108,0
Hrobce,Hrobce,41183,Na Návsi,88,0
Straškov-Vodochody,Straškov-Vodochody,41184,,2,0
Horní Beřkovice,Horní Beřkovice,41185,Podřipská,82,0
Bechlín,Bechlín,41186,,85,0
Krabčice u Roudnice nad Labem,Krabčice,41187,,67,0
Litoměřice 1,Litoměřice,41201,Na Valech,722,18
Litoměřice 3,Litoměřice,41203,U Kapličky,443,1
Roudnice nad Labem,Roudnice nad Labem,41301,Husovo náměstí,69,0
Teplice 1,Teplice,41501,Dubská,3094,1
Teplice 3,Teplice,41503,Jaselská,427,0
Teplice 8,Teplice,41508,Laubeho náměstí,293,3
Teplice 10,Teplice,41510,Jana Koziny,1628,31
Dubí u Teplic 1,Dubí,41701,Krušnohorská,567,13
Dubí,Dubí,41702,Lípová,38,1
Pozorka,Dubí,41703,Ruská,264,11
Hrob,Hrob,41704,U Radnice,234,0
Osek u Duchcova,Osek,41705,Husova,56,0
Proboštov u Teplic,Proboštov,41712,náměstí Svobody,700,0
Modlany,Modlany,41713,,34,0
Háj u Duchcova,Háj u Duchcova,41722,Kubátova,155,0
Košťany u Teplic,Košťany,41723,Mírové náměstí,17,0
Oldřichov,Jeníkov,41724,,52,0
Lahošť,Lahošť,41725,Švermova,22,0
Novosedlice,Novosedlice,41731,Valentinská,97,1
Krupka 1,Krupka,41742,Karla Čapka,294,0
Hostomice nad Bílinou,Hostomice,41752,Školní náměstí,18,0
Světec,Světec,41753,Preissigovo náměstí,4,0
Kostomlaty pod Milešovkou,Kostomlaty pod Milešovkou,41754,Hlavní,5,0
Hrobčice,Hrobčice,41757,,41,0
Bystřany,Bystřany,41761,Pražská,35,0
Rtyně nad Bílinou,Rtyně nad Bílinou,41762,,78,0
Žalany,Žalany,41763,Pražská,48,0
Ohníč,Ohníč,41765,,11,0
Zabrušany,Zabrušany,41771,,1,0
Ledvice,Ledvice,41772,Mírová,422,42
Moldava,Moldava,41781,,113,0
Bílina 1,Bílina,41801,Mírové náměstí,72,5
Duchcov,Duchcov,41901,Osecká,1531,0
Chomutov 2,Chomutov,43002,Farského,4732,0
Chomutov 3,Chomutov,43003,Jiráskova,5338,0
Chomutov 5,Chomutov,43005,Zahradní,5341,0
Spořice,Spořice,43101,U koupaliště,494,0
Zelená,Málkov,43102,,215E,0
Jirkov 1,Jirkov,43111,náměstí Dr. E. Beneše,3,0
Strupčice,Strupčice,43114,,300,0
Boleboř,Boleboř,43121,,57,0
Údlice,Údlice,43141,Náměstí,70,0
Hrušovany u Chomutova,Hrušovany,43143,,15,0
Droužkovice,Droužkovice,43144,Rudé armády,80,0
Březno u Chomutova,Březno,43145,Nechranická,257,0
Klášterec nad Ohří 1,Klášterec nad Ohří,43151,Petlérská,449,0
Pětipsy,Pětipsy,43153,,58,0
Vilémov u Kadaně,Vilémov,43154,Náměstí,70,0
Radonice,Radonice,43155,,167,0
Mašťov,Mašťov,43156,Náměstí,122,0
Chbany,Chbany,43157,,19,0
Místo,Místo,43158,,81,0
Vysoká Pec,Vysoká Pec,43159,Julia Fučíka,197,0
Perštejn,Perštejn,43163,Hlavní,216,0
Hora Svatého Šebestiána,Hora Svatého Šebestiána,43182,,60,0
Kovářská,Kovářská,43186,náměstí J. Švermy,64,0
Vejprty,Vejprty,43191,náměstí T. G. Masaryka,1241,0
Kadaň 1,Kadaň,43201,Poštovní,1553,0
Most 1,Most,43401,Moskevská,5,0
Most 6,Most,43406,Rudolická,1706,4
Most 11,Most,43411,Lipová,805,8
Havraň,Havraň,43501,,11,0
Malé Březno,Malé Březno,43504,,1,0
Lom u Mostu 1,Lom,43511,náměstí Republiky,13,5
Lom u Mostu 2,Lom,43512,Podkrušnohorská,73,6
Meziboří u Litvínova,Meziboří,43513,náměstí 8. května,341,0
Obrnice,Obrnice,43521,Mírová,171,0
Braňany,Braňany,43522,,200,0
Lužice u Mostu,Lužice,43524,,58,0
Bečov u Mostu,Bečov,43526,,21,0
Mariánské Radčice,Mariánské Radčice,43532,Dukelských hrdinů,57,0
Louka u Litvínova,Louka u Litvínova,43533,Husova,89,0
Litvínov 8,Litvínov,43542,Hamerská,258,0
Horní Jiřetín,Horní Jiřetín,43543,Mostecká,34,76
Nová Ves v Horách,Nová Ves v Horách,43545,,224,0
Hora Svaté Kateřiny,Hora Svaté Kateřiny,43546,Dlouhá,50,0
Brandov,Brandov,43547,,60,0
Litvínov 1,Litvínov,43601,náměstí Míru,13,0
Žatec 1,Žatec,43801,Volyňských Čechů,3098,0
Černčice,Černčice,43901,Masarykovo náměstí,214,0
Cítoliby,Cítoliby,43902,Zeměšská,219,0
Chlumčany,Chlumčany,43903,,154,0
Hříškov,Hříškov,43904,,50,0
Panenský Týnec,Panenský Týnec,43905,,2,0
Peruc,Peruc,43907,Žižkova,165,0
Pátek,Peruc,43908,,151,0
Slavětín nad Ohří,Slavětín,43909,Bieblova,60,0
Smolnice,Smolnice,43914,,104,0
Vinařice u Loun,Vinařice,43915,,36,0
Koštice nad Ohří,Koštice,43921,,26,0
Chožov,Chožov,43922,,114,0
Lenešice,Lenešice,43923,Knížete Václava,521,0
Raná u Loun,Raná,43924,,21,0
Libčeves,Libčeves,43926,Lipová,166,0
Měcholupy u Žatce,Měcholupy,43931,,71,0
Postoloprty,Postoloprty,43942,5. května,134,0
Staňkovice u Žatce,Staňkovice,43949,Sídliště,194,0
Liběšice u Žatce,Liběšice,43963,,80,0
Hřivice,Hřivice,43965,,24,0
Ročov,Ročov,43967,,1,0
Domoušice,Domoušice,43968,,107,0
Tuchořice,Tuchořice,43969,,123,0
Nepomyšl,Nepomyšl,43971,,102,0
Krásný Dvůr,Krásný Dvůr,43972,,117,0
Libočany,Libočany,43975,,103,0
Kryry,Kryry,43981,Hlavní,1,0
Vroutek,Vroutek,43982,náměstí Míru,166,0
Lubenec,Lubenec,43983,Náměstí,1,0
Blatno u Podbořan,Blatno,43984,,63,0
Petrohrad,Petrohrad,43985,,146,0
Strojetice,Kryry,43986,,51,0
Očihov,Očihov,43987,,7,0
Blšany,Blšany,43988,Náměstí,29,0
Louny 1,Louny,44001,Štefánikova,1465,0
Jimlín,Jimlín,44008,,200,0
Podbořany,Podbořany,44101,Masarykovo náměstí,887,0
Mobilní pošta 41,Deštná,44444,náměstí Míru,61,0
Liberec 1,Liberec,46001,náměstí Dr. E. Beneše,559,28
Liberec 2,Liberec,46002,Nákladní,429,6
Liberec 3,Liberec,46003,České mládeže,456,0
Liberec 6,Liberec,46006,Dobiášova,1008,11
Liberec 14,Liberec,46014,Vrchlického,830,41
Stráž nad Nisou,Stráž nad Nisou,46303,Studánecká,259,0
Liberec 30,Liberec,46311,Poštovní,232,0
Mníšek u Liberce,Mníšek,46322,Poštovní,275,0
Oldřichov v Hájích,Oldřichov v Hájích,46323,,151,0
Chrastava,Chrastava,46331,Nádražní,367,0
Bílý Kostel nad Nisou,Bílý Kostel nad Nisou,46332,,206,0
Chotyně,Chotyně,46333,,217,0
Hrádek nad Nisou,Hrádek nad Nisou,46334,Nádražní,420,0
Dlouhý Most,Dlouhý Most,46341,,18,0
Hodkovice nad Mohelkou,Hodkovice nad Mohelkou,46342,náměstí T. G. Masaryka,1,0
Český Dub,Český Dub,46343,náměstí Bedřicha Smetany,10,0
Sychrov,Radimovice,46344,,47,0
Pěnčín u Liberce,Pěnčín,46345,,107,0
Příšovice,Příšovice,46346,,42,0
Všelibice,Všelibice,46348,,61,0
Světlá pod Ještědem,Světlá pod Ještědem,46351,,50,0
Osečná,Osečná,46352,Svatovítské náměstí,100,0
Křižany,Křižany,46353,,337,0
Rynoltice,Rynoltice,46355,,4,0
Raspenava,Raspenava,46361,Fučíkova,646,0
Hejnice,Hejnice,46362,Jizerská,339,0
Bílý Potok pod Smrkem,Bílý Potok,46363,,85,0
Lázně Libverda,Lázně Libverda,46364,,17,0
Nové Město pod Smrkem,Nové Město pod Smrkem,46365,Mírové náměstí,274,0
Jindřichovice pod Smrkem,Jindřichovice pod Smrkem,46366,,245,0
Řasnice,Dolní Řasnice,46367,,326,0
Dětřichov,Dětřichov,46371,,284,0
Višňová u Frýdlantu,Višňová,46372,,135,0
Habartice,Habartice,46373,,191,0
Frýdlant v Čechách,Frýdlant,46401,Okružní,1260,0
Jablonec nad Nisou 1,Jablonec nad Nisou,46601,Liberecká,32,2
Jablonec nad Nisou 4,Jablonec nad Nisou,46604,Želivského,5050,2
Rychnov u Jablonce nad Nisou,Rychnov u Jablonce nad Nisou,46802,Údolní,66,0
Rádlo,Rádlo,46803,,121,0
Jablonec nad Nisou 7,Jablonec nad Nisou,46804,Prosečská,192,0
Janov nad Nisou,Janov nad Nisou,46811,,354,0
Bedřichov,Bedřichov,46812,,1597E,0
Bratříkov,Pěnčín,46821,,29,0
Železný Brod,Železný Brod,46822,Poštovní,404,0
Loužnice,Loužnice,46823,,58,0
Držkov,Držkov,46824,,106,0
Zásada,Zásada,46825,,259,0
Huť,Pěnčín,46826,,169,0
Nová Ves nad Nisou,Nová Ves nad Nisou,46827,,281,0
Malá Skála,Malá Skála,46831,,696E,0
Frýdštejn,Frýdštejn,46832,,80,0
Jenišovice u Jablonce nad Nisou,Jenišovice,46833,,241,0
Huntířov nad Jizerou,Skuhrov,46834,,63,0
Tanvald,Tanvald,46841,Poštovní,293,0
Albrechtice v Jizerských horách,Albrechtice v Jizerských horách,46843,,220,0
Josefův Důl,Josefův Důl,46844,,297,0
Velké Hamry,Velké Hamry,46845,,409,0
Plavy,Plavy,46846,,186,0
Zlatá Olešnice,Zlatá Olešnice,46847,,196,0
Kořenov,Kořenov,46849,,480,0
Smržovka,Smržovka,46851,Hlavní,1250,0
Dolní Kořenov,Kořenov,46852,,905,0
Desná v Jizerských horách,Desná,46861,Krkonošská,630,0
Lučany nad Nisou,Lučany nad Nisou,46871,,440,0
Česká Lípa 1,Česká Lípa,47001,náměstí T. G. Masaryka,194,27
Česká Lípa 3,Česká Lípa,47003,Děčínská,3271,0
Česká Lípa 6,Česká Lípa,47006,28. října,2850,0
Zahrádky u České Lípy,Zahrádky,47101,,14,0
Kravaře u České Lípy,Kravaře,47103,náměstí,111,0
Blíževedly,Blíževedly,47104,,12,0
Horní Police,Horní Police,47106,9. května,167,0
Žandov u České Lípy,Žandov,47107,Náměstí,18,0
Jezvé,Stružnice,47108,,87,0
Horní Libchava u České Lípy,Horní Libchava,47111,,208,0
Volfartice,Volfartice,47112,,59,0
Nový Oldřichov,Nový Oldřichov,47113,,51,0
Kamenický Šenov,Kamenický Šenov,47114,náměstí T. G. Masaryka,193,0
Prysk,Prysk,47115,,17,0
Polevsko,Polevsko,47116,,152,0
Skalice u České Lípy,Skalice u České Lípy,47117,,377,0
Pihel,Nový Bor,47118,,226,0
Ralsko,Ralsko,47122,,703,0
Zákupy,Zákupy,47123,náměstí Svobody,251,0
Mimoň,Mimoň,47124,Mírová,120,0
Jablonné v Podještědí,Jablonné v Podještědí,47125,Zdislavy z Lemberka,37,0
Dubnice pod Ralskem,Dubnice,47126,,240,0
Stráž pod Ralskem,Stráž pod Ralskem,47127,Máchova,5,0
Hamr u České Lípy,Hamr na Jezeře,47128,Liberecká,24,0
Brniště,Brniště,47129,,102,0
Dubá,Dubá,47141,Školní,192,0
Svor,Svor,47151,,195,0
Sloup v Čechách,Sloup v Čechách,47152,U Pošty,296,0
Svojkov,Svojkov,47153,,12,0
Cvikov,Cvikov,47154,Komenského,308,0
Kunratice u Cvikova,Kunratice u Cvikova,47155,,411,0
Mařenice,Mařenice,47156,,26,0
Krompach,Krompach,47157,,186,0
Lindava,Cvikov,47158,,278,0
Jestřebí,Jestřebí,47161,,140,0
Okna,Okna,47162,,68,0
Staré Splavy,Doksy,47163,Jana Roháče z Dubé,75,0
Provodín,Provodín,47167,,80,0
Doksy,Doksy,47201,náměstí Republiky,213,0
Nový Bor,Nový Bor,47301,náměstí Míru,55,0
Hradec Králové 1,Hradec Králové,50001,Collinova,573,0
Hradec Králové 2,Hradec Králové,50002,Zamenhofova,915,2
Hradec Králové 3,Hradec Králové,50003,Pospíšilova,215,11a
Hradec Králové 8,Hradec Králové,50008,Lesní,157,2
Hradec Králové 9,Hradec Králové,50009,Mrštíkova,1767,38a
Hradec Králové 12,Hradec Králové,50012,třída Edvarda Beneše,1423,21
Předměřice nad Labem,Předměřice nad Labem,50302,Obránců míru,123,0
Smiřice,Smiřice,50303,Nám. Míru,361,0
Černožice nad Labem,Černožice,50304,Gen. Svobody,268,0
Hořiněves,Hořiněves,50306,,89,0
Hradec Králové 15,Hradec Králové,50311,Dvorská,324,95
Všestary,Všestary,50312,,35,0
Dohalice,Dohalice,50313,,17,0
Stračov,Stračov,50314,,2,0
Nechanice,Nechanice,50315,Husovo náměstí,38,0
Dolní Přím,Dolní Přím,50316,,27,0
Stěžery,Stěžery,50321,Lipová,1,0
Libčany,Libčany,50322,,80,0
Kratonohy,Kratonohy,50324,,31,0
Dobřenice,Dobřenice,50325,,184,0
Osice,Osice,50326,,117,0
Lhota pod Libčany,Lhota pod Libčany,50327,,70,0
Vysoká nad Labem,Vysoká nad Labem,50331,,115,0
Hradec Králové 22,Hradec Králové,50332,Poštovní,45,12
Praskačka,Praskačka,50333,,72,0
Černilov,Černilov,50343,,310,0
Libřice,Libřice,50344,,111,0
Jeníkovice,Jeníkovice,50345,,25,0
Třebechovice pod Orebem,Třebechovice pod Orebem,50346,Žižkova,850,0
Blešno,Blešno,50347,,13,0
Chlumec nad Cidlinou,Chlumec nad Cidlinou,50351,Kozelkova,402,0
Skřivany,Skřivany,50352,Dr. Vojtěcha,142,0
Smidary,Smidary,50353,Poštovní,2,0
Ohnišťany,Ohnišťany,50354,,91,0
Petrovice u Nového Bydžova,Petrovice,50355,,104,0
Hlušice,Hlušice,50356,,70,0
Starý Bydžov,Starý Bydžov,50357,,1,0
Lovčice,Lovčice,50361,,185,0
Lužec nad Cidlinou,Lužec nad Cidlinou,50362,,89,0
Nepolisy,Nepolisy,50363,,75,0
Měník,Měník,50364,,43,0
Kosičky,Kosičky,50365,,1,0
Káranice,Káranice,50366,,48,0
Nový Bydžov,Nový Bydžov,50401,Jablonského,505,0
Jičín 1,Jičín,50601,Šafaříkova,142,0
Slatiny,Slatiny,50701,,135,0
Žeretice,Žeretice,50702,,117,0
Vysoké Veselí,Vysoké Veselí,50703,Mírové náměstí,6,0
Třtěnice,Třtěnice,50704,,128,0
Konecchlumí,Konecchlumí,50705,,7,0
Lužany,Lužany,50706,,144,0
Úlibice,Úlibice,50707,,22,0
Valdice,Valdice,50711,náměstí Míru,36,0
Radim,Radim,50712,,91,0
Železnice,Železnice,50713,Muzejní,204,0
Libuň,Libuň,50715,,27,0
Veliš,Veliš,50721,,4,0
Střevač,Střevač,50722,,49,0
Libáň,Libáň,50723,Jičínská,63,0
Dětenice,Dětenice,50724,,141,0
Jičíněves,Jičíněves,50731,,82,0
Kopidlno,Kopidlno,50732,náměstí Hilmarovo,90,0
Vršce,Vršce,50733,,91,0
Žlunice,Žlunice,50734,,138,0
Samšina,Samšina,50741,,35,0
Markvartice u Sobotky,Markvartice,50742,,25,0
Sobotka,Sobotka,50743,Boleslavská,440,0
Libošovice,Libošovice,50744,,83,0
Mladějov,Mladějov,50745,,106,0
Holovousy,Holovousy,50751,,18,0
Ostroměř,Ostroměř,50752,Zahradní,390,0
Chomutice u Hořic v Podkrkonoší,Chomutice,50753,,164,0
Podhorní Újezd a Vojice,Podhorní Újezd a Vojice,50754,,118,0
Mlázovice,Mlázovice,50758,Náměstí,46,0
Šárovcova Lhota,Šárovcova Lhota,50759,,12,0
Miletín,Miletín,50771,Komenského,100,0
Dobrá Voda u Hořic,Dobrá Voda u Hořic,50773,,193,0
Milovice u Hořic,Milovice u Hořic,50774,,61,0
Jeřice,Jeřice,50776,,21,0
Cerekvice nad Bystřicí,Cerekvice nad Bystřicí,50777,,1,0
Lázně Bělohrad,Lázně Bělohrad,50781,Náměstí K. V. Raise,138,0
Pecka,Pecka,50782,,2,0
Stará Paka,Stará Paka,50791,Revoluční,180,0
Úbislavice,Úbislavice,50792,,53,0
Hořice v Podkrkonoší,Hořice,50801,Havlíčkova,40,0
Nová Paka,Nová Paka,50901,Komenského,313,0
Turnov 1,Turnov,51101,náměstí Českého Ráje,65,0
Slaná u Semil,Slaná,51201,,62,0
Košťálov,Košťálov,51202,,200,0
Libštát,Libštát,51203,,198,0
Mříčná,Mříčná,51204,,211,0
Háje nad Jizerou,Háje nad Jizerou,51205,,15,0
Benešov u Semil,Benešov u Semil,51206,,134,0
Vysoké nad Jizerou,Vysoké nad Jizerou,51211,,165,0
Jesenný,Jesenný,51212,,23,0
Bozkov,Bozkov,51213,,78,0
Roztoky u Jilemnice,Roztoky u Jilemnice,51231,,265,0
Martinice v Krkonoších,Martinice v Krkonoších,51232,,131,0
Studenec u Horek,Studenec,51233,,358,0
Horka u Staré Paky,Horka u Staré Paky,51234,,41,0
Čistá u Horek,Čistá u Horek,51235,,231,0
Horní Branná,Horní Branná,51236,,326,0
Benecko,Benecko,51237,,190,0
Vítkovice v Krkonoších,Vítkovice,51238,,335,0
Víchová nad Jizerou,Víchová nad Jizerou,51241,,220,0
Poniklá,Poniklá,51242,,55,0
Jablonec nad Jizerou,Jablonec nad Jizerou,51243,,277,0
Rokytnice nad Jizerou 1,Rokytnice nad Jizerou,51244,,360,0
Harrachov v Krkonoších,Harrachov,51246,,152,0
Paseky nad Jizerou,Paseky nad Jizerou,51247,,242,0
Lomnice nad Popelkou,Lomnice nad Popelkou,51251,plk. Truhláře,108,0
Tatobity,Tatobity,51253,,59,0
Mírová pod Kozákovem,Mírová pod Kozákovem,51254,,51,0
Přepeře,Přepeře,51261,,10,0
Karlovice u Turnova,Karlovice,51262,,47,0
Rovensko pod Troskami,Rovensko pod Troskami,51263,Tyršova,73,0
Vyskeř,Vyskeř,51264,,50,0
Všeň,Všeň,51265,,10,0
Nová Ves nad Popelkou,Nová Ves nad Popelkou,51271,,64,0
Semily,Semily,51301,Husova,9,0
Jilemnice,Jilemnice,51401,Geologa Pošepného,380,0
Rychnov nad Kněžnou,Rychnov nad Kněžnou,51601,Bezručova,14,0
Lukavice,Lukavice,51603,,190,0
Solnice,Solnice,51701,Pod Poštou,6,0
Kvasiny,Kvasiny,51702,,81,0
Skuhrov nad Bělou,Skuhrov nad Bělou,51703,,84,0
Černíkovice,Černíkovice,51704,,141,0
Javornice,Javornice,51711,,7,0
Liberk,Liberk,51712,,70,0
Týniště nad Orlicí,Týniště nad Orlicí,51721,Mírové náměstí,268,0
Albrechtice nad Orlicí,Albrechtice nad Orlicí,51722,Pardubická,233,0
Žďár nad Orlicí,Žďár nad Orlicí,51723,,133,0
Borohrádek,Borohrádek,51724,Nádražní,40,0
Čermná nad Orlicí,Čermná nad Orlicí,51725,,45,0
Bolehošť,Bolehošť,51731,,128,0
Přepychy,Přepychy,51732,,5,0
Trnov u Dobrušky,Trnov,51733,,3,0
Voděrady u Rychnova nad Kněžnou,Voděrady,51734,,70,0
Lično,Lično,51735,,1,0
Olešnice,Olešnice,51736,,134,0
Kostelec nad Orlicí,Kostelec nad Orlicí,51741,Dukelských hrdinů,900,0
Doudleby nad Orlicí,Doudleby nad Orlicí,51742,Dukelská,68,0
Potštejn,Potštejn,51743,Pod Lipami,281,0
Lhoty u Potštejna,Lhoty u Potštejna,51744,,34,0
Chleny,Chleny,51745,,68,0
Častolovice,Častolovice,51750,Masarykova,10,0
Vamberk,Vamberk,51754,Struha,698,0
Rybná nad Zdobnicí,Rybná nad Zdobnicí,51755,,150,0
Slatina nad Zdobnicí,Slatina nad Zdobnicí,51756,,198,0
Pěčín u Rychnova nad Kněžnou,Pěčín,51757,,207,0
Rokytnice v Orlických horách,Rokytnice v Orlických horách,51761,náměstí T. G. Masaryka,79,0
Orlické Záhoří,Orlické Záhoří,51764,,34,0
České Meziříčí,České Meziříčí,51771,Záhumenská,445,0
Jílovice u Dobrušky,Jílovice,51772,,103,0
Opočno,Opočno,51773,Kupkovo náměstí,247,0
Bystré,Bystré,51781,,110,0
Sedloňov,Sedloňov,51782,,155,0
Olešnice v Orlických horách,Olešnice v Orlických horách,51783,,5,0
Ohnišov,Ohnišov,51784,,172,0
Deštné v Orlických horách,Deštné v Orlických horách,51791,,61,0
Kounov u Dobrušky,Kounov,51792,,32,0
Dobré,Dobré,51793,,150,0
Bílý Újezd u Dobrušky,Bílý Újezd,51794,,42,0
Dobruška,Dobruška,51801,Opočenská,71,0
Podbřezí,Podbřezí,51803,,16,0
Pardubice 1,Pardubice,53001,Na Hrádku,105,0
Pardubice 3,Pardubice,53003,Na Drážce,1585,0
Pardubice 5,Pardubice,53005,Jana Palacha,1552,0
Pardubice 6,Pardubice,53006,Kostnická,870,0
Pardubice 9,Pardubice,53009,Jiřího Tomana,275,0
Pardubice 21,Pardubice,53301,Průmyslová,495,0
Dašice v Čechách,Dašice,53303,Komenského,25,0
Sezemice,Sezemice,53304,Smetanova,114,0
Dříteč,Dříteč,53305,,116,0
Zdechovice,Zdechovice,53311,,5,0
Chvaletice,Chvaletice,53312,U Stadionu,238,0
Řečany nad Labem,Řečany nad Labem,53313,1. máje,147,0
Kladruby nad Labem,Kladruby nad Labem,53314,,3,0
Hlavečník,Hlavečník,53315,,28,0
Vápno,Vápno,53316,,26,0
Vysoké Chvojno,Vysoké Chvojno,53321,Soběslavova,2,0
Býšť,Býšť,53322,,162,0
Čepí,Čepí,53332,,79,0
Lázně Bohdaneč,Lázně Bohdaneč,53341,Šípkova,47,0
Živanice,Živanice,53342,,47,0
Rohovládova Bělá,Rohovládova Bělá,53343,,74,0
Staré Ždánice,Staré Ždánice,53344,,192,0
Opatovice nad Labem,Opatovice nad Labem,53345,Hradecká,116,0
Staré Hradiště u Pardubic,Staré Hradiště,53352,U Pošty,185,0
Pardubice 19,Pardubice,53353,Poděbradská,293,0
Rybitví,Rybitví,53354,Činžovních domů,141,0
Choltice,Choltice,53361,Pardubická,138,0
Svojšice u Přelouče,Svojšice,53362,,1,0
Turkovice u Přelouče,Turkovice,53363,,2,0
Lipoltice,Lipoltice,53364,,25,0
Dolní Roveň,Dolní Roveň,53371,,1,0
Moravany u Holic,Moravany,53372,Komenského,138,0
Uhersko,Uhersko,53373,,34,0
Horní Jelení,Horní Jelení,53374,náměstí Komenského,97,0
Dolní Ředice,Dolní Ředice,53375,Holická,210,0
Holice v Čechách,Holice,53401,Hradecká,502,0
Přelouč,Přelouč,53501,Pardubická,115,0
Chrudim 1,Chrudim,53701,Resselovo náměstí,109,0
Bylany,Bylany,53801,,77,0
Morašice u Chrudimě,Morašice,53802,,17,0
Heřmanův Městec,Heřmanův Městec,53803,Sokolská,268,0
Prachovice,Prachovice,53804,Chrudimská,23,0
Seč 1,Seč,53807,náměstí Prof. Č. Strouhala,38,0
Slatiňany,Slatiňany,53821,Spojovací,658,0
Licibořice,Licibořice,53823,,17,0
Svídnice,Svídnice,53824,,13,0
Nasavrky,Nasavrky,53825,Slatiňanská,76,0
Bojanov,Bojanov,53826,,37,0
Úhřetice,Úhřetice,53832,,43,0
Rosice,Rosice,53834,,96,0
Zaječice,Zaječice,53835,,4,0
Žumberk,Žumberk,53836,,79,0
Podhořany u Ronova nad Doubravou,Podhořany u Ronova,53841,,59,0
Ronov nad Doubravou,Ronov nad Doubravou,53842,Lichnická,64,0
Třemošnice,Třemošnice,53843,1. máje,447,0
Běstvina,Běstvina,53845,,29,0
Chrast u Chrudimě,Chrast,53851,U Pošty,500,0
Luže,Luže,53854,Komenského,241,0
Kočí,Kočí,53861,,92,0
Hrochův Týnec,Hrochův Týnec,53862,Nádražní,10,0
Chroustovice,Chroustovice,53863,náměstí Josefa Haška,96,0
Jenišovice,Jenišovice,53864,,42,0
Řepníky,Řepníky,53865,,34,0
Hlinsko v Čechách 1,Hlinsko,53901,Adámkova třída,1094,0
Kameničky,Kameničky,53941,,149,0
Svratouch,Svratouch,53942,,286,0
Krouna,Krouna,53943,,218,0
Proseč u Skutče,Proseč,53944,náměstí Dr. Tošovského,18,0
Nové Hrady,Nové Hrady,53945,,121,0
Trhová Kamenice,Trhová Kamenice,53952,Raisovo náměstí,4,0
Horní Bradlo,Horní Bradlo,53953,,7,0
Miřetice,Miřetice,53955,,126,0
Vrbatův Kostelec,Vrbatův Kostelec,53956,,52,0
Včelákov,Včelákov,53957,,81,0
Vortová,Vortová,53961,,59,0
Holetín,Holetín,53971,,105,0
Raná u Hlinska,Raná,53972,,17,0
Skuteč,Skuteč,53973,Tylova,134,0
Předhradí,Předhradí,53974,kap. Svatoně,80,0
Prosetín,Prosetín,53976,,22,0
Trutnov 1,Trutnov,54101,Hradební,11,0
Trutnov 4,Trutnov,54102,Dlouhá,572,0
Žacléř,Žacléř,54201,Rýchorské náměstí,10,0
Bernartice,Bernartice,54204,,82,0
Chvaleč,Chvaleč,54211,,231,0
Radvanice v Čechách,Radvanice,54212,,173,0
Jívka,Jívka,54213,,42,0
Pec pod Sněžkou,Pec pod Sněžkou,54221,,197,0
Mladé Buky,Mladé Buky,54223,,186,0
Svoboda nad Úpou,Svoboda nad Úpou,54224,náměstí Svornosti,474,0
Janské Lázně,Janské Lázně,54225,náměstí Svobody,274,0
Horní Maršov,Horní Maršov,54226,Třída Josefa II.,77,0
Úpice,Úpice,54232,Palackého,1096,0
Rtyně v Podkrkonoší,Rtyně v Podkrkonoší,54233,Hronovská,573,0
Malé Svatoňovice,Malé Svatoňovice,54234,Nádražní,105,0
Velké Svatoňovice,Velké Svatoňovice,54235,,294,0
Libňatov,Libňatov,54236,,13,0
Vlčice,Vlčice,54241,,201,0
Pilníkov,Pilníkov,54242,Trutnovská,56,0
Staré Buky,Staré Buky,54243,,50,0
Vrchlabí 1,Vrchlabí,54301,Krkonošská,149,0
Lánov,Lánov,54341,,200,0
Dolní Dvůr,Dolní Dvůr,54342,,76,0
Černý Důl,Černý Důl,54344,,80,0
Špindlerův Mlýn,Špindlerův Mlýn,54351,,188,0
Strážné,Strážné,54352,,129,0
Kunčice nad Labem,Kunčice nad Labem,54361,,86,0
Dolní Branná,Dolní Branná,54362,,256,0
Hostinné,Hostinné,54371,Poštovní,32,0
Rudník u Vrchlabí,Rudník,54372,,56,0
Prosečné,Prosečné,54373,,37,0
Dolní Kalná,Dolní Kalná,54374,,36,0
Dolní Olešnice,Dolní Olešnice,54375,,89,0
Chotěvice,Chotěvice,54376,,275,0
Čermná,Čermná,54377,,40,0
Dvůr Králové nad Labem,Dvůr Králové nad Labem,54401,Legionářská,406,0
Žireč,Dvůr Králové nad Labem,54404,,58,0
Choustníkovo Hradiště,Choustníkovo Hradiště,54442,,102,0
Kuks,Kuks,54443,,3,0
Vlčkovice v Podkrkonoší,Vlčkovice v Podkrkonoší,54444,,105,0
Doubravice u Dvora Králové n/Labem,Doubravice,54451,,155,0
Velký Vřešťov,Velký Vřešťov,54454,,37,0
Dubenec u Dvora Králové nad Labem,Dubenec,54455,,2,0
Hřibojedy,Hřibojedy,54456,,22,0
Nemojov,Nemojov,54461,,13,0
Vítězná,Vítězná,54462,,209,0
Kocbeře,Kocbeře,54464,,53,0
Hajnice,Hajnice,54466,,119,0
Bílá Třemešná,Bílá Třemešná,54472,,276,0
Horní Brusnice,Horní Brusnice,54474,,241,0
Mostek,Mostek,54475,,76,0
Borovnice,Borovnice,54477,,39,0
Náchod 1,Náchod,54701,Masarykovo náměstí,43,0
Nové Město nad Metují 1,Nové Město nad Metují,54901,náměstí Republiky,6,0
Nové Město nad Metují 3,Nové Město nad Metují,54902,Nahořanská,60,0
Bohuslavice nad Metují,Bohuslavice,54906,,175,0
Nahořany,Nahořany,54907,,102,0
Provodov-Šonov,Provodov-Šonov,54908,,170,0
Dolní Radechová,Dolní Radechová,54911,Náchodská,240,0
Česká Čermná,Česká Čermná,54921,,128,0
Nový Hrádek,Nový Hrádek,54922,Rokolská,123,0
Hronov 1,Hronov,54931,T. G. Masaryka,302,0
Velké Poříčí,Velké Poříčí,54932,Náměstí,102,0
Hronov 4,Hronov,54934,,82,0
Stárkov,Stárkov,54936,,115,0
Žďárky,Žďárky,54937,,35,0
Červený Kostelec,Červený Kostelec,54941,17. listopadu,298,0
Horní Radechová,Horní Radechová,54946,,187,0
Studnice u Náchoda,Studnice,54948,,75,0
Horní Adršpach,Adršpach,54952,,112,0
Police nad Metují,Police nad Metují,54954,Tyršova,340,0
Žďár nad Metují,Žďár nad Metují,54955,,111,0
Česká Metuje,Česká Metuje,54956,,10,0
Teplice nad Metují,Teplice nad Metují,54957,Aloise Jiráska,95,0
Suchý Důl,Suchý Důl,54962,,134,0
Machov,Machov,54963,,129,0
Bezděkov nad Metují,Bezděkov nad Metují,54964,,164,0
Otovice u Broumova,Otovice,54972,,196,0
Martínkovice,Martínkovice,54973,,186,0
Božanov,Božanov,54974,,110,0
Meziměstí u Broumova 1,Meziměstí,54981,5. května,114,0
Vernéřovice,Vernéřovice,54982,,1,0
Heřmánkovice,Heřmánkovice,54984,,215,0
Broumov 1,Broumov,55001,Československé armády,380,0
Broumov 3,Broumov,55003,třída Soukenická,24,0
Jaroměř 1,Jaroměř,55101,náměstí Československé armády,18,0
Dolany,Dolany,55201,,39,0
Česká Skalice,Česká Skalice,55203,třída T. G. Masaryka,878,0
Chvalkovice v Čechách,Chvalkovice,55204,,130,0
Hořičky,Hořičky,55205,,89,0
Velichovky,Velichovky,55211,Dlážděná,,0
Heřmanice,Heřmanice,55212,,20,0
Rasošky,Rasošky,55221,,50,0
Jasenná,Jasenná,55222,,68,0
Velká Jesenice,Velká Jesenice,55224,,188,0
Rychnovek,Rychnovek,55225,,50,0
Mobilní pošta 51,Sulice,55555,Školní,343,0
Česká Třebová 1,Česká Třebová,56001,Chmelnice,129,0
Česká Třebová 2,Česká Třebová,56002,náměstí Jana Pernera,584,0
Hnátnice,Hnátnice,56101,,170,0
Dolní Dobrouč,Dolní Dobrouč,56102,,380,0
Brandýs nad Orlicí,Brandýs nad Orlicí,56112,Komenského,5,0
Sudslava,Sudslava,56113,,64,0
České Libchavy,České Libchavy,56114,,118,0
Sopotnice,Sopotnice,56115,,226,0
Libchavy,Libchavy,56116,,206,0
Dlouhá Třebová,Dlouhá Třebová,56117,Ústecká,231,0
Němčice,Němčice,56118,,128,0
Ostrov,Ostrov,56122,,272,0
Damníkov,Damníkov,56123,,42,0
Třebovice,Třebovice,56124,,187,0
Rudoltice,Rudoltice,56125,,38,0
Tatenice,Tatenice,56131,,243,0
Cotkytle,Cotkytle,56132,,100,0
Horní Heřmanice v Čechách,Horní Heřmanice,56133,,91,0
Výprachtice,Výprachtice,56134,,3,0
Řetová,Řetová,56141,,138,0
Letohrad,Letohrad,56151,Družstevní,833,0
Verměřovice,Verměřovice,56152,,123,0
Dolní Čermná,Dolní Čermná,56153,,230,0
Bystřec,Bystřec,56154,,188,0
Orličky,Orličky,56155,,4,0
Horní Čermná,Horní Čermná,56156,,1,0
Červená Voda 1,Červená Voda,56161,,52,0
Nekoř,Nekoř,56163,,282,0
Jablonné nad Orlicí,Jablonné nad Orlicí,56164,Hradisková,575,0
Jamné nad Orlicí,Jamné nad Orlicí,56165,,280,0
Těchonín,Těchonín,56166,,80,0
Mladkov,Mladkov,56167,,12,0
Králíky,Králíky,56169,Valdštejnova,916,0
Písečná,Písečná,56170,,78,0
Kunvald,Kunvald,56181,,100,0
Klášterec nad Orlicí,Klášterec nad Orlicí,56182,,97,0
Líšnice,Líšnice,56184,,248,0
Česká Rybná u Žamberka,Česká Rybná,56185,,78,0
Záchlumí,Záchlumí,56186,,77,0
Ústí nad Orlicí 1,Ústí nad Orlicí,56201,T. G. Masaryka,897,0
Lanškroun,Lanškroun,56301,náměstí J. M. Marků,56,0
Žamberk,Žamberk,56401,Nádražní,833,0
Choceň 1,Choceň,56501,Dolní,1200,0
Choceň 2,Choceň,56502,Pernerova,394,0
Vraclav,Vraclav,56542,,66,0
Zámrsk,Zámrsk,56543,,87,0
Sruby,Sruby,56544,,28,0
České Heřmanice,České Heřmanice,56552,,75,0
Sloupnice,Sloupnice,56553,,3,0
Vysoké Mýto,Vysoké Mýto,56601,B. Smetany,33,0
Svitavy 2,Svitavy,56802,Větrná,662,2
Hradec nad Svitavou,Hradec nad Svitavou,56901,,301,0
Březová nad Svitavou,Březová nad Svitavou,56902,Moravské náměstí,22,0
Rozhraní,Rozhraní,56903,,74,0
Brněnec,Brněnec,56904,,77,0
Bělá nad Svitavou,Bělá nad Svitavou,56905,,215,0
Vítějeves,Vítějeves,56906,,65,0
Radiměř,Radiměř,56907,,440,0
Koclířov u Svitav,Koclířov,56911,,103,0
Opatov v Čechách,Opatov,56912,,221,0
Vendolí,Vendolí,56914,,103,0
Moravská Třebová 3,Moravská Třebová,56921,,102,0
Křenov,Křenov,56922,,56,0
Březina u Moravské Třebové,Březina,56923,,81,0
Kunčina,Kunčina,56924,,142,0
Staré Město u Moravské Třebové,Staré Město,56932,,153,0
Třebařov,Třebařov,56933,,186,0
Rychnov na Moravě,Rychnov na Moravě,56934,,168,0
Mladějov na Moravě,Mladějov na Moravě,56935,,56,0
Městečko Trnávka,Městečko Trnávka,56941,,4,0
Chornice,Chornice,56942,Jevíčská,41,0
Jevíčko,Jevíčko,56943,Palackého náměstí,6,0
Jaroměřice u Jevíčka,Jaroměřice,56944,,204,0
Biskupice u Jevíčka,Biskupice,56945,,11,0
Vranová Lhota,Vranová Lhota,56946,,34,0
Morašice u Litomyšle,Morašice,56951,,96,0
Cerekvice nad Loučnou,Cerekvice nad Loučnou,56953,,171,0
Janov u Litomyšle,Janov,56955,,216,0
Čistá u Litomyšle,Čistá,56956,,314,0
Trstěnice u Litomyšle,Trstěnice,56957,,238,0
Dolní Újezd u Litomyšle,Dolní Újezd,56961,,281,0
Sebranice u Litomyšle,Sebranice,56962,,32,0
Lubná u Poličky,Lubná,56963,,327,0
Poříčí u Litomyšle,Poříčí u Litomyšle,56964,,81,0
Budislav u Litomyšle,Budislav,56965,,64,0
Osík u Litomyšle,Osík,56967,,240,0
Pomezí,Pomezí,56971,,4,0
Rohozná u Poličky,Rohozná,56972,,387,0
Svojanov,Svojanov,56973,,36,0
Trpín,Trpín,56974,,77,0
Borová u Poličky,Borová,56982,,100,0
Pustá Kamenice,Pustá Kamenice,56983,,130,0
Jedlová u Poličky,Jedlová,56991,,390,0
Bystré u Poličky,Bystré,56992,náměstí Na podkově,6,0
Korouhev,Korouhev,56993,,234,0
Telecí,Telecí,56994,,156,0
Litomyšl,Litomyšl,57001,Smetanovo náměstí,15,0
Moravská Třebová 1,Moravská Třebová,57101,náměstí T. G. Masaryka,74,7
Polička,Polička,57201,Eimova,245,0
Havlíčkův Brod 2,Havlíčkův Brod,58002,Svatovojtěšská,58,0
Pohled,Pohled,58221,Revoluční,39,0
Přibyslav,Přibyslav,58222,Bechyňovo náměstí,3,0
Havlíčkova Borová,Havlíčkova Borová,58223,Náměstí,278,0
Oudoleň,Oudoleň,58224,,131,0
Okrouhlice,Okrouhlice,58231,,49,0
Lipnice nad Sázavou,Lipnice nad Sázavou,58232,,2,0
Dolní Město,Dolní Město,58233,,93,0
Krásná Hora u Havlíčkova Brodu,Krásná Hora,58234,,23,0
Lučice,Lučice,58235,,171,0
Skuhrov u Havlíčkova Brodu,Skuhrov,58241,,48,0
Kámen u Habrů,Kámen,58242,,53,0
Tis,Tis,58243,,112,0
Sázavka,Sázavka,58244,,12,0
Uhelná Příbram,Uhelná Příbram,58245,,121,0
Šlapanov,Šlapanov,58251,,158,0
Věžnice,Věžnice,58252,,45,0
Štoky,Štoky,58253,,116,0
Úsobí,Úsobí,58254,,43,0
Herálec,Herálec,58255,,257,0
Věž,Věž,58256,,17,0
Lípa u Havlíčkova Brodu,Lípa,58257,,93,0
Česká Bělá,Česká Bělá,58261,,122,0
Sobíňov,Sobíňov,58262,,200,0
Ždírec nad Doubravou,Ždírec nad Doubravou,58263,Družstevní,569,0
Horní Studenec,Ždírec nad Doubravou,58264,,107,0
Slavíkov,Slavíkov,58265,,2,0
Krucemburk,Krucemburk,58266,Mikuláše Střely,138,0
Dolní Krupá,Dolní Krupá,58271,,30,0
Rozsochatec,Rozsochatec,58272,,97,0
Nová Ves u Chotěboře,Nová Ves u Chotěboře,58273,,63,0
Jeřišno,Jeřišno,58274,,25,0
Maleč,Maleč,58276,,104,0
Libice nad Doubravou,Libice nad Doubravou,58277,Zámecká,47,0
Habry,Habry,58281,Pražská,20,0
Golčův Jeníkov,Golčův Jeníkov,58282,Havlíčkovo náměstí,126,0
Vilémov,Vilémov,58283,,1,0
Leština u Světlé,Leština u Světlé,58286,,51,0
Číhošť,Číhošť,58287,,44,0
Světlá nad Sázavou,Světlá nad Sázavou,58291,náměstí Trčků z Lípy,1045,0
Kamenná Lhota,Kamenná Lhota,58292,,52,0
Kožlí,Kožlí,58293,,156,0
Hněvkovice u Ledče nad Sázavou,Hněvkovice,58294,,33,0
Chotěboř,Chotěboř,58301,náměstí T. G. Masaryka,56,0
Ledeč nad Sázavou,Ledeč nad Sázavou,58401,Nádražní,461,0
Jihlava 1,Jihlava,58601,Masarykovo náměstí,4321,8
Jihlava 2,Jihlava,58602,Havlíčkova,5100,124
Jihlava 4,Jihlava,58604,Erbenova,2598,33
Jihlava 5,Jihlava,58605,S. K. Neumanna,496,15
Jihlava 6,Jihlava,58606,Březinova,4690,144
Smrčná,Smrčná,58801,,22,0
Dušejov,Dušejov,58805,,109,0
Střítež u Jihlavy,Střítež,58811,,1,0
Dobronín,Dobronín,58812,Za Školou,343,1
Polná,Polná,58813,Varhánkova,1241,0
Velký Beranov,Velký Beranov,58821,,31,0
Luka nad Jihlavou,Luka nad Jihlavou,58822,Nová,16,0
Kamenice u Jihlavy,Kamenice,58823,,395,0
Řehořov,Kamenice,58824,,62,0
Jersín,Jersín,58825,,36,0
Zhoř u Jihlavy,Zhoř,58826,,106,0
Jamné u Jihlavy,Jamné,58827,,1,0
Puklice,Puklice,58831,,1,0
Brtnice,Brtnice,58832,náměstí Svobody,257,0
Stonařov,Stonařov,58833,,207,0
Dlouhá Brtnice,Dlouhá Brtnice,58834,,57,0
Vyskytná nad Jihlavou,Vyskytná nad Jihlavou,58841,,67,0
Větrný Jeníkov,Větrný Jeníkov,58842,,5,0
Rohozná u Jihlavy,Rohozná,58844,,28,0
Dolní Cerekev,Dolní Cerekev,58845,,107,0
Batelov,Batelov,58851,Třešťská,71,2
Horní Dubenky,Horní Dubenky,58852,,31,0
Mrákotín,Mrákotín,58854,,31,0
Telč,Telč,58856,Staňkova,294,0
Kostelec u Jihlavy,Kostelec,58861,,100,0
Urbanov,Urbanov,58862,,26,0
Krasonice,Krasonice,58864,,127,0
Nová Říše,Nová Říše,58865,Náměstí,40,0
Rozseč,Rozseč,58866,,94,0
Stará Říše,Stará Říše,58867,,81,0
Třešť,Třešť,58901,Revoluční,20,1
Žďár nad Sázavou 1,Žďár nad Sázavou,59101,Nádražní,494,23
Herálec pod Žákovou horou,Herálec,59201,,80,0
Svratka,Svratka,59202,9. května,250,0
Sněžné,Sněžné,59203,,54,0
Fryšava pod Žákovou horou,Fryšava pod Žákovou horou,59204,,,0
Velká Losenice,Velká Losenice,59211,,161,0
Nížkov,Nížkov,59212,,107,0
Bohdalov,Bohdalov,59213,,84,0
Nové Veselí,Nové Veselí,59214,Na Městečku,59,0
Škrdlovice,Škrdlovice,59221,,48,0
Vojnův Městec,Vojnův Městec,59222,,27,0
Nové Město na Moravě,Nové Město na Moravě,59231,Masarykova,1492,0
Jámy,Jámy,59232,,47,0
Radešínská Svratka,Radešínská Svratka,59233,,134,0
Dalečín,Dalečín,59241,,61,0
Jimramov,Jimramov,59242,Pavlovická,181,0
Věcov,Věcov,59244,,61,0
Lísek,Lísek,59245,,80,0
Dolní Rožínka,Dolní Rožínka,59251,,81,0
Rožná,Rožná,59252,,8,0
Strážek,Strážek,59253,,13,0
Moravec,Moravec,59254,,59,0
Bobrová,Bobrová,59255,,190,0
Zvole nad Pernštejnem,Zvole,59256,,52,0
Rozsochy,Rozsochy,59257,,146,0
Doubravník,Doubravník,59261,,33,0
Nedvědice,Nedvědice,59262,,42,0
Štěpánov nad Svratkou,Štěpánov nad Svratkou,59263,,23,0
Prosetín,Prosetín,59264,,64,0
Rovečné,Rovečné,59265,,120,0
Vír,Vír,59266,,172,0
Bystřice nad Pernštejnem,Bystřice nad Pernštejnem,59301,Masarykovo náměstí,105,0
Velké Meziříčí,Velké Meziříčí,59401,Poštovní,1422,1
Uhřínov,Uhřínov,59441,,23,0
Měřín,Měřín,59442,Poštovní,265,0
Netín,Netín,59443,,138,0
Radostín nad Oslavou,Radostín nad Oslavou,59444,,190,0
Ostrov nad Oslavou,Ostrov nad Oslavou,59445,,186,0
Křižanov,Křižanov,59451,Benešovo náměstí,12,0
Osová Bítýška,Osová Bítýška,59453,,3,0
Křoví,Křoví,59454,,32,0
Dolní Loučky,Dolní Loučky,59455,,120,0
Žďárec,Žďárec,59456,,42,0
Vidonín,Vidonín,59457,,36,0
Heřmanov,Heřmanov,59458,,35,0
Bory,Bory,59461,,232,0
Velká Bíteš,Velká Bíteš,59501,Masarykovo náměstí,81,0
Brno 1,Brno,60100,Šumavská,519,35
Brno 2,Brno,60200,Nádražní,681,2a
Brno 7,Modřice,60700,U dálnice,777,0
Brno 8,Brno,60800,Heršpická,875,6a
Brno 10,Brno,61000,Orlí,655,30
Brno 12,Brno,61200,Mojmírovo náměstí,2919,22
Brno 13,Brno,61300,Zemědělská,649,68
Brno 15,Brno,61500,Rokycanova,1867,35
Brno 16,Brno,61600,náměstí Svornosti,2573,6
Brno 17,Brno,61700,Svatopetrská,60,28
Brno 18,Brno,61800,Spáčilova,1109,15
Brno 20,Brno,62000,Tuřanské náměstí,88,3
Brno 21,Brno,62100,Kolaříkova,1501,10
Brno 22,Brno,62200,Fryčajova,77,18
Brno 23,Brno,62300,Libušina třída,579,2
Brno 24,Brno,62400,Hlavní,247,64
Brno 25,Brno,62500,U pošty,638,16
Brno 26,Brno,62600,Mácova,37,3
Brno 27,Brno,62700,Přemyslovo náměstí,857,22
Brno 28,Brno,62800,Vlkova,2481,4
Brno 29,Brno,62900,Pálavské náměstí,4246,5
Brno 30,Brno,63000,Dlouhá,576,1
Brno 34,Brno,63400,Kamínky,551,3
Brno 35,Brno,63500,Kubíčkova,1115,8
Brno 37,Brno,63700,Veslařská,549,52
Brno 38,Brno,63800,Haškova,153,17
Brno 41,Brno,64100,Helenčina,976,1a
Brno 42,Brno,64200,Vzhledná,500,5
Brno 43,Brno,64300,Chrlické náměstí,1,4
Bílovice nad Svitavou,Bílovice nad Svitavou,66401,Žižkova,998,0
Ochoz u Brna,Ochoz u Brna,66402,Náves,17,2
Podolí,Podolí,66403,,122,0
Mokrá,Mokrá-Horákov,66404,,348,0
Tvarožná,Tvarožná,66405,,40,0
Viničné Šumice,Viničné Šumice,66406,,23,0
Pozořice,Pozořice,66407,Na Městečku,14,0
Blažovice,Blažovice,66408,Náves,103,0
Zbýšov u Brna,Zbýšov,66411,Masarykova,248,0
Oslavany,Oslavany,66412,Hlavní,36,24
Nová Ves,Nová Ves,66413,,67,0
Neslovice,Neslovice,66416,Žleb,95,0
Tetčice,Tetčice,66417,Nádražní,58,0
Babice nad Svitavou,Babice nad Svitavou,66419,,83,0
Čebín,Čebín,66423,,541,0
Drásov,Drásov,66424,Všechovická,61,0
Lelekovice,Lelekovice,66431,Hlavní,75,7
Vranov,Vranov,66432,,24,0
Kuřim,Kuřim,66434,Legionářská,334,65
Troubsko,Troubsko,66441,Zámecká,150,8
Modřice,Modřice,66442,Masarykova,144,0
Želešice,Želešice,66443,24. dubna,30,0
Ořechov u Brna,Ořechov,66444,Zahradní,216,1
Prštice,Prštice,66446,Hlavní,1,0
Střelice u Brna,Střelice,66447,náměstí Svobody,241,3
Moravany u Brna,Moravany,66448,Střední,11,30
Ostopovice,Ostopovice,66449,U Kaple,260,5
Šlapanice u Brna,Šlapanice,66451,Masarykovo náměstí,100,7
Sokolnice,Sokolnice,66452,Komenského,162,0
Újezd u Brna,Újezd u Brna,66453,Komenského,144,0
Těšany,Těšany,66454,,141,0
Moutnice,Moutnice,66455,,297,0
Blučina,Blučina,66456,Na Lázních,600,0
Měnín,Měnín,66457,,570,0
Prace,Prace,66458,Ponětovská,129,0
Telnice,Telnice,66459,Růžová,243,0
Rajhrad,Rajhrad,66461,Masarykova,88,0
Hrušovany u Brna,Hrušovany u Brna,66462,Jiřího z Poděbrad,224,0
Žabčice,Žabčice,66463,Nádražní,589,0
Dolní Kounice,Dolní Kounice,66464,Masarykovo náměstí,142,10
Malešovice,Malešovice,66465,,50,0
Němčičky,Němčičky,66466,,6,0
Syrovice,Syrovice,66467,,60,0
Veverská Bítýška,Veverská Bítýška,66471,9. května,3,0
Jinačovice,Jinačovice,66472,,83,0
Deblín,Deblín,66475,,43,0
Lažánky,Lažánky,66476,,14,0
Ostrovačice,Ostrovačice,66481,Žebětínská,252,0
Říčany u Brna,Říčany,66482,náměstí Osvobození,286,0
Domašov,Domašov,66483,Brněnská,94,0
Zastávka u Brna,Zastávka,66484,Babická,103,0
Ketkovice,Ketkovice,66485,,214,0
Vysoké Popovice,Vysoké Popovice,66486,,35,0
Zbraslav,Zbraslav,66488,Komenského,105,0
Ivančice,Ivančice,66491,Komenského náměstí,21,9
Rosice u Brna,Rosice,66501,Palackého náměstí,19,0
Tišnov 1,Tišnov,66601,náměstí Míru,22,0
Předklášteří,Předklášteří,66602,Komenského,1169,0
Mobilní pošta 61,Vrbice,66666,,8,0
Židlochovice,Židlochovice,66701,Nádražní,160,0
Znojmo 1,Znojmo,66901,Horní náměstí,256,13
Znojmo 2,Znojmo,66902,Dr. Milady Horákové,2297,6
Znojmo 4,Znojmo,66904,Poštovní,82,8
Citonice,Citonice,67101,,82,0
Šumná,Šumná,67102,,45,0
Vranov nad Dyjí,Vranov nad Dyjí,67103,Náměstí,19,0
Šafov,Šafov,67106,,11,0
Uherčice u Znojma,Uherčice,67107,,113,0
Vratěnín,Vratěnín,67108,,64,0
Šatov,Šatov,67122,,381,0
Chvalovice,Chvalovice,67123,,46,0
Vrbovec,Vrbovec,67124,,146,0
Hodonice,Hodonice,67125,U Pošty,80,0
Dyjákovice,Dyjákovice,67126,,339,0
Hrádek u Znojma,Hrádek,67127,,29,0
Jaroslavice,Jaroslavice,67128,Náměstí,92,0
Strachotice,Strachotice,67129,,46,0
Únanov,Únanov,67131,,243,0
Plaveč,Plaveč,67132,Náves,63,0
Mikulovice u Znojma,Mikulovice,67133,,144,0
Horní Dunajovice,Horní Dunajovice,67134,,102,0
Skalice u Znojma,Skalice,67136,,92,0
Višňové u Znojma,Višňové,67138,,127,0
Tavíkovice,Tavíkovice,67140,,150,0
Vémyslice,Vémyslice,67142,,64,0
Kravsko,Kravsko,67151,,200,0
Hluboké Mašůvky,Hluboké Mašůvky,67152,,10,0
Jevišovice,Jevišovice,67153,,290,0
Hostim,Hostim,67154,,165,0
Blížkovice,Blížkovice,67155,,129,0
Grešlové Mýto,Grešlové Mýto,67156,,22,0
Prosiměřice,Prosiměřice,67161,,197,0
Oleksovice,Oleksovice,67162,,69,0
Lechovice,Lechovice,67163,,32,0
Božice,Božice,67164,,374,0
Břežany u Znojma,Břežany,67165,,103,0
Litobratřice,Litobratřice,67166,,19,0
Hrušovany nad Jevišovkou,Hrušovany nad Jevišovkou,67167,náměstí Míru,707,0
Hrabětice,Hrabětice,67168,Hrušovanská,153,0
Hevlín,Hevlín,67169,,491,0
Hostěradice,Hostěradice,67171,,48,0
Miroslav,Miroslav,67172,náměstí Svobody,22,22
Tulešice,Tulešice,67173,,18,0
Vedrovice,Vedrovice,67174,,326,0
Loděnice,Loděnice,67175,,114,0
Olbramovice u Moravského Krumlova,Olbramovice,67176,,148,0
Branišovice,Branišovice,67177,,57,0
Jiřice u Miroslavi,Jiřice u Miroslavi,67178,,33,0
Znojmo 5,Znojmo,67181,Dukelských bojovníků,3655,138
Dobšice,Dobšice,67182,Leska,347,0
Moravský Krumlov,Moravský Krumlov,67201,náměstí T. G. Masaryka,29,0
Třebíč 1,Třebíč,67401,Smila Osovského,2,1
Třebíč 5,Třebíč,67405,M. Majerové,751,6
Vladislav,Vladislav,67501,,198,0
Koněšín,Koněšín,67502,,144,0
Budišov u Třebíče,Budišov,67503,,356,0
Hodov,Hodov,67504,,120,0
Rudíkov,Rudíkov,67505,,,0
Čechtín,Čechtín,67507,,55,0
Kouty u Třebíče,Kouty,67508,,11,0
Okříšky,Okříšky,67521,Jihlavská,539,0
Stařeč,Stařeč,67522,Jakubské náměstí,148,0
Kojetice na Moravě,Kojetice,67523,,82,0
Čáslavice,Čáslavice,67524,,110,0
Rokytnice nad Rokytnou,Rokytnice nad Rokytnou,67525,,67,0
Želetava,Želetava,67526,Podolí,143,0
Předín,Předín,67527,,243,0
Opatov na Moravě,Opatov,67528,,148,0
Kněžice u Třebíče,Kněžice,67529,,2,0
Jemnice,Jemnice,67531,Palackého,771,0
Třebelovice,Třebelovice,67532,,123,0
Dešov,Dešov,67533,,147,0
Police u Jemnice,Police,67534,,30,0
Nové Syrovice,Nové Syrovice,67541,,4,0
Budkov,Budkov,67542,,82,0
Domamil,Domamil,67543,,2,0
Lesonice,Lesonice,67544,,117,0
Šebkovice,Šebkovice,67545,,127,0
Litohoř,Litohoř,67546,,155,0
Dukovany-elektrárna,Dukovany,67550,,269,0
Jaroměřice nad Rokytnou,Jaroměřice nad Rokytnou,67551,náměstí Míru,25,0
Lipník u Hrotovic,Lipník,67552,,106,0
Valeč u Hrotovic,Valeč,67553,,10,0
Dalešice,Dalešice,67554,,87,0
Hrotovice,Hrotovice,67555,Brněnská,188,0
Dukovany,Dukovany,67556,,99,0
Rouchovany,Rouchovany,67557,,329,0
Radkovice u Hrotovic,Radkovice u Hrotovic,67559,,13,0
Myslibořice,Myslibořice,67560,,14,0
Náměšť nad Oslavou,Náměšť nad Oslavou,67571,Masarykovo náměstí,62,0
Kralice nad Oslavou,Kralice nad Oslavou,67572,Jinošovská,78,0
Rapotice,Rapotice,67573,Bítešská,37,0
Březník,Březník,67574,,104,0
Mohelno,Mohelno,67575,,197,0
Hartvíkovice,Hartvíkovice,67576,,31,0
Kramolín-vodní dílo,Kramolín,67577,,46,0
Čikov,Čikov,67578,,45,0
Tasov,Tasov,67579,,130,0
Moravské Budějovice 2,Moravské Budějovice,67602,1. máje,322,0
Blansko 1,Blansko,67801,Hybešova,584,53
Skalice nad Svitavou,Skalice nad Svitavou,67901,,85,0
Rájec-Jestřebí,Rájec-Jestřebí,67902,Sportovní,629,0
Olomučany,Olomučany,67903,,123,0
Adamov 1,Adamov,67904,Nádražní,115,0
Křtiny,Křtiny,67905,,26,0
Jedovnice,Jedovnice,67906,Havlíčkovo náměstí,631,0
Kotvrdovice,Kotvrdovice,67907,,150,0
Doubravice nad Svitavou,Doubravice nad Svitavou,67911,Dolní,33,0
Sloup v Moravském Krasu,Sloup,67913,,1,0
Ostrov u Macochy,Ostrov u Macochy,67914,,80,0
Lipovec u Blanska,Lipovec,67915,,318,0
Černá Hora,Černá Hora,67921,Svitavská,103,0
Lipůvka,Lipůvka,67922,,146,0
Lomnice u Tišnova,Lomnice,67923,Dlouhá,126,0
Sebranice u Boskovic,Sebranice,67931,,149,0
Svitávka,Svitávka,67932,Palackého,183,0
Vísky u Letovic,Vísky,67933,,96,0
Knínice,Knínice,67934,,275,0
Šebetov,Šebetov,67935,,133,0
Vanovice,Vanovice,67936,,132,0
Borotín u Boskovic,Borotín,67937,,200,0
Cetkovice,Cetkovice,67938,Náves,168,0
Úsobrno,Úsobrno,67939,,81,0
Němčice u Boskovic,Němčice,67951,,151,0
Žďárná,Žďárná,67952,,10,0
Benešov u Boskovic,Benešov,67953,,18,0
Letovice,Letovice,67961,Tyršova,205,1
Křetín,Křetín,67962,,54,0
Velké Opatovice,Velké Opatovice,67963,Dlouhá,669,0
Lysice,Lysice,67971,Komenského,570,0
Kunštát na Moravě,Kunštát,67972,náměstí ČSČK,496,0
Rozseč nad Kunštátem,Rozseč nad Kunštátem,67973,,106,0
Olešnice na Moravě,Olešnice,67974,náměstí Míru,92,0
Drnovice u Lysic,Drnovice,67976,,52,0
Boskovice,Boskovice,68001,Hybešova,1009,1
Vyškov 1,Vyškov,68201,Dvořákova,128,23
Vyškov 3,Vyškov,68203,náměstí Svobody,19,11
Rousínov u Vyškova,Rousínov,68301,Sušilovo náměstí,52,30
Habrovany,Habrovany,68302,,79,0
Luleč,Luleč,68303,,260,0
Drnovice,Drnovice,68304,,435,0
Račice-Pístovice,Račice-Pístovice,68305,,74,0
Ruprechtov,Ruprechtov,68306,,251,0
Krásensko,Krásensko,68307,,123,0
Studnice u Vyškova,Studnice,68308,,66,0
Rychtářov,Vyškov,68309,,48,0
Pustiměř,Pustiměř,68321,,202,0
Ivanovice na Hané,Ivanovice na Hané,68323,Nádražní,139,3
Švábenice,Švábenice,68324,,18,0
Orlovice,Orlovice,68325,,157,0
Hoštice-Heroltice,Hoštice-Heroltice,68326,,78,0
Moravské Prusy,Prusy-Boškůvky,68327,,40,0
Kučerov,Kučerov,68331,,22,0
Brankovice,Brankovice,68332,Náměstí,101,0
Nesovice,Nesovice,68333,,172,0
Nemotice,Nemotice,68334,,66,0
Letonice,Letonice,68335,Osvobození,112,0
Milonice u Vyškova,Milonice,68336,,102,0
Bohdalice,Bohdalice-Pavlovice,68341,,45,0
Nové Hvězdlice,Hvězdlice,68342,,211,0
Holubice,Holubice,68351,,61,0
Křenovice,Křenovice,68352,Svárovská,679,0
Šaratice,Šaratice,68353,Náves,83,0
Otnice,Otnice,68354,Dědina,46,0
Bošovice,Bošovice,68355,Náves,291,0
Nížkovice,Nížkovice,68356,,39,0
Křižanovice,Křižanovice,68357,,85,0
Slavkov u Brna,Slavkov u Brna,68401,Palackého náměstí,3,0
Bučovice,Bučovice,68501,Legionářská,128,0
Uherské Hradiště 1,Uherské Hradiště,68601,Masarykovo náměstí,12,0
Staré Město u Uherského Hradiště,Staré Město,68603,náměstí Hrdinů,100,0
Kunovice,Kunovice,68604,Pekařská,1542,0
Košíky,Košíky,68680,,172,0
Babice u Uherského Hradiště,Babice,68703,,147,0
Traplice,Traplice,68704,,240,0
Jalubí,Jalubí,68705,,341,0
Velehrad,Velehrad,68706,Hradišťská,288,0
Tupesy,Tupesy,68707,,135,0
Buchlovice,Buchlovice,68708,náměstí Svobody,283,0
Boršice,Boršice,68709,,147,0
Zlechov,Zlechov,68710,,540,0
Topolná,Topolná,68711,,204,0
Bílovice u Uherského Hradiště,Bílovice,68712,,39,0
Březolupy,Březolupy,68713,,434,0
Nedachlebice,Nedachlebice,68715,,250,0
Ostrožská Nová Ves,Ostrožská Nová Ves,68722,Záhumení,754,0
Ostrožská Lhota,Ostrožská Lhota,68723,,67,0
Uherský Ostroh,Uherský Ostroh,68724,Svobodova,146,0
Hluk,Hluk,68725,Hřbitovní,140,0
Šumice,Šumice,68731,,100,0
Nezdenice,Nezdenice,68732,,206,0
Hradčovice,Hradčovice,68733,,168,0
Záhorovice,Záhorovice,68735,,382,0
Polešovice,Polešovice,68737,,242,0
Nedakonice,Nedakonice,68738,,498,0
Medlovice,Medlovice,68741,,80,0
Osvětimany,Osvětimany,68742,,350,0
Nivnice,Nivnice,68751,Sídliště,999,0
Korytná,Korytná,68752,,297,0
Suchá Loz,Suchá Loz,68753,,72,0
Bánov u Uherského Brodu,Bánov,68754,,428,0
Bystřice pod Lopeníkem,Bystřice pod Lopeníkem,68755,,196,0
Prakšice,Prakšice,68756,,29,0
Vlčnov,Vlčnov,68761,,124,0
Dolní Němčí,Dolní Němčí,68762,Nivnická,82,0
Boršice u Blatnice,Boršice u Blatnice,68763,,157,0
Horní Němčí,Horní Němčí,68764,,98,0
Strání,Strání,68765,Na kopci,426,0
Květná,Strání,68766,náměstí Em. Zahna,168,0
Březová u Uherského Brodu,Březová,68767,,390,0
Bojkovice,Bojkovice,68771,Palackého,173,0
Pitín,Pitín,68772,,18,0
Starý Hrozenkov,Starý Hrozenkov,68774,,305,0
Uherský Brod 1,Uherský Brod,68801,Bří Lužů,107,0
Břeclav 2,Břeclav,69002,Břetislavova,1945,1
Břeclav 3,Břeclav,69003,Lidická,3411,33b
Moravský Žižkov,Moravský Žižkov,69101,Břeclavská,222,0
Velké Bílovice,Velké Bílovice,69102,U Školky,366,0
Rakvice,Rakvice,69103,Náměstí,20,0
Přítluky,Přítluky,69104,Poštovní,225,0
Zaječí,Zaječí,69105,Dlážděná,407,0
Velké Pavlovice,Velké Pavlovice,69106,Hlavní,49,89
Němčičky,Němčičky,69107,,221,0
Bořetice u Hustopečí,Bořetice,69108,,503,0
Vrbice,Vrbice,69109,,8,0
Kobylí na Moravě,Kobylí,69110,,500,0
Brumovice,Brumovice,69111,,155,0
Boleradice,Boleradice,69112,,376,0
Strachotín,Strachotín,69116,Osvobození,87,0
Sedlec,Sedlec,69121,,15,0
Pasohlávky,Pasohlávky,69122,,1,0
Pohořelice,Pohořelice,69123,Brněnská,3,0
Přibice,Přibice,69124,,348,0
Vranovice,Vranovice,69125,Školní,1,0
Pouzdřany,Pouzdřany,69126,Hlavní,99,0
Popice,Popice,69127,Hlavní,86,0
Dolní Věstonice,Dolní Věstonice,69129,Na Návsi,21,0
Vlasatice,Vlasatice,69130,,149,0
Břeclav 4,Břeclav,69141,Osvobození,270,4
Valtice,Valtice,69142,náměstí Svobody,18,0
Hlohovec u Břeclavě,Hlohovec,69143,Dědina,10,0
Lednice na Moravě,Lednice,69144,Zámecké náměstí,71,0
Podivín,Podivín,69145,Komenského,311,17
Ladná,Ladná,69146,Masarykova,1,64
Lanžhot,Lanžhot,69151,Komárnov,784,2
Kostice,Kostice,69152,Nová,142,2
Tvrdonice,Tvrdonice,69153,náměstí Míru,96,31
Týnec u Břeclavě,Týnec,69154,Poštovní,284,0
Moravská Nová Ves,Moravská Nová Ves,69155,náměstí Republiky,107,0
Hrušky,Hrušky,69156,Břeclavská,427,0
Uherčice,Uherčice,69162,,72,0
Velké Němčice,Velké Němčice,69163,Městečko,85,0
Nosislav,Nosislav,69164,Městečko,293,0
Křepice u Hustopečí,Křepice,69165,,25,0
Šakvice,Šakvice,69167,Hlavní,12,0
Starovičky,Starovičky,69168,,62,0
Diváky,Diváky,69171,,110,0
Klobouky u Brna,Klobouky u Brna,69172,Masarykova,757,1
Krumvíř,Krumvíř,69173,,184,0
Velké Hostěrádky,Velké Hostěrádky,69174,,65,0
Borkovany,Borkovany,69175,,276,0
Šitbořice,Šitbořice,69176,Divácká,583,0
Březí u Mikulova,Březí,69181,Hlavní,112,0
Novosedly na Moravě,Novosedly,69182,,1,0
Drnholec,Drnholec,69183,Kostelní,368,0
Dolní Dunajovice,Dolní Dunajovice,69185,Poštovní,190,0
Perná,Perná,69186,,130,0
Milovice u Mikulova,Milovice,69188,,35,0
Bulhary,Bulhary,69189,,88,0
Mikulov na Moravě,Mikulov,69201,Česká,143,7
Pavlov,Pavlov,69202,Na Návsi,88,0
Hustopeče u Brna,Hustopeče,69301,Husova,1168,5
Hodonín 1,Hodonín,69501,Velkomoravská,2270,6
Rohatec,Rohatec,69601,Květná,359,1
Ratíškovice,Ratíškovice,69602,U Pošty,327,0
Dubňany,Dubňany,69603,U Zdravotního střediska,1649,0
Svatobořice,Svatobořice-Mistřín,69604,Hlavní,1000,113
Milotice u Kyjova,Milotice,69605,Dědina,188,0
Vacenovice,Vacenovice,69606,Na Dědině,777,0
Mutěnice,Mutěnice,69611,Masarykova,201,0
Hovorany,Hovorany,69612,,45,0
Šardice,Šardice,69613,,470,0
Čejč,Čejč,69614,,58,0
Čejkovice,Čejkovice,69615,Templářská,159,0
Starý Poddvorov,Starý Poddvorov,69616,,230,0
Dolní Bojanovice,Dolní Bojanovice,69617,Prostřední,125,0
Lužice u Hodonína,Lužice,69618,Velkomoravská,391,316
Mikulčice,Mikulčice,69619,,500,0
Prušánky,Prušánky,69621,Hlavní,100,0
Bukovany,Bukovany,69631,,222,0
Ždánice,Ždánice,69632,Městečko,759,0
Archlebov,Archlebov,69633,,2,0
Žarošice,Žarošice,69634,,85,0
Dambořice,Dambořice,69635,Městečko,498,0
Násedlovice,Násedlovice,69636,,129,0
Želetice,Želetice,69637,,189,0
Strážovice,Strážovice,69638,,196,0
Lovčice,Lovčice,69639,,119,0
Sobůlky,Sobůlky,69640,,105,0
Vlkoš,Vlkoš,69641,,95,0
Vracov,Vracov,69642,náměstí Míru,202,0
Žeravice,Žeravice,69647,,40,0
Ježov,Ježov,69648,,187,0
Žádovice,Žádovice,69649,,41,0
Moravany,Moravany,69650,,205,0
Kostelec,Kostelec,69651,,260,0
Kyjov 3,Kyjov,69655,,4177,0
Vnorovy,Vnorovy,69661,Hlavní,296,0
Strážnice,Strážnice,69662,náměstí Svobody,494,0
Hroznová Lhota,Hroznová Lhota,69663,,408,0
Kněždub,Kněždub,69664,,140,0
Petrov,Petrov,69665,,283,0
Sudoměřice,Sudoměřice,69666,,320,0
Radějov u Hodonína,Radějov,69667,,7,0
Tvarožná Lhota,Tvarožná Lhota,69668,,190,0
Blatnice pod Svatým Antonínkem,Blatnice pod Svatým Antonínkem,69671,,28,0
Lipov,Lipov,69672,,337,0
Hrubá Vrbka,Hrubá Vrbka,69673,,133,0
Velká nad Veličkou,Velká nad Veličkou,69674,,870,0
Nová Lhota,Nová Lhota,69675,,355,0
Louka,Louka,69676,,19,0
Bzenec,Bzenec,69681,B. Němcové,85,0
Domanín,Domanín,69683,,9,0
Těmice,Těmice,69684,,38,0
Moravský Písek,Moravský Písek,69685,Sportovní,251,0
Kyjov 1,Kyjov,69701,třída Komenského,50,10
Veselí nad Moravou,Veselí nad Moravou,69801,náměstí Míru,675,0
Ostrava 30,Ostrava,70030,Bohumíra Četyny,1047,12
Ostrava 36,Ostrava,70036,Sjízdná,5554,2
Ostrava 37,Ostrava,70037,náměstí Antonie Bejdové,1808,7
Ostrava 39,Ostrava,70039,Jantarová,3344,4
Ostrava 45,Ostrava,70045,Na Smyčce,317,5
Ostrava 46,Ostrava,70046,Horní,1492,55
Ostrava 47,Ostrava,70047,Výškovická,714,170
Ostrava 1,Ostrava,70100,Poštovní,1368,20
Ostrava 2,Ostrava,70200,Wattova,1046,19
Ostrava 3,Ostrava,70300,Šalounova,778,18
Ostrava 4,Ostrava,70400,Rodimcevova,2011,26
Ostrava 8,Ostrava,70800,Čkalovova,713,47
Ostrava 9,Ostrava,70900,Mariánské náměstí,1041,3
Ostrava 12,Ostrava,71200,U Kapličky,117,4
Ostrava 15,Ostrava,71500,Československé armády,448,98
Ostrava 16,Ostrava,71600,Vrchlického,288,6
Ostrava 17,Ostrava,71700,U Statku,185,6
Ostrava 20,Ostrava,72000,Bažanova,174,4
Ostrava 21,Ostrava,72100,Peterkova,79,5
Ostrava 23,Ostrava,72300,Martinovská,3168,48
Ostrava 24,Ostrava,72400,Blanická,1068,187
Ostrava 25,Ostrava,72525,1. května,1136,162
Ostrava 26,Ostrava,72526,Družební,576,0
Ostrava 27,Ostrava,72527,Dobroslavická,83,8
Ostrava 28,Ostrava,72528,Postranní,398,0
Ostrava 29,Ostrava,72529,Hlučínská,135,0
Karviná 1,Karviná,73301,Masarykovo náměstí,3,2
Karviná 4,Karviná,73401,tř. Těreškovové,2233,28
Karviná 6,Karviná,73506,náměstí Budovatelů,1402,18
Orlová 1,Orlová,73511,Staré náměstí,1195,0
Orlová 4,Orlová,73514,Osvobození,796,0
Bohumín 3,Bohumín,73531,1. máje,265,0
Rychvald,Rychvald,73532,Mírová,1537,0
Doubrava,Doubrava,73533,,600,0
Stonava,Stonava,73534,,49,0
Horní Suchá,Horní Suchá,73535,Těrlická,936,14
Petřvald u Karviné,Petřvald,73541,Gen. Svobody,929,0
Těrlicko,Těrlicko,73542,Školní,422,1
Albrechtice u Českého Těšína,Albrechtice,73543,Obecní,800,0
Dolní Lutyně,Dolní Lutyně,73553,Koperníkova,666,0
Chotěbuz,Chotěbuz,73561,Chotěbuzská,250,0
Dětmarovice,Dětmarovice,73571,,320,0
Petrovice u Karviné,Petrovice u Karviné,73572,,374,0
Karviná 9,Karviná,73573,tř. 17. listopadu,883,2a
Bohumín 1,Bohumín,73581,Ad. Mickiewicze,67,0
Bohumín 2,Bohumín,73582,Slezská,116,0
Havířov 1,Havířov,73601,Dlouhá třída,464,7a
Havířov 21,Havířov,73608,Dlouhá třída,1161,97
Havířov 7,Havířov,73609,Generála Svobody,268,17
Český Těšín 1,Český Těšín,73701,Nádražní,1166,2a
Český Těšín 7,Český Těšín,73707,Kysucká,1829,14
Frýdek-Místek 1,Frýdek-Místek,73801,Sadová,2379,0
Frýdek-Místek 12,Frýdek-Místek,73802,Antonínovo náměstí,92,0
Baška,Baška,73901,,421,0
Janovice u Frýdku-Místku,Janovice,73902,,247,0
Pržno,Pržno,73903,,201,0
Pražmo,Pražmo,73904,,81,0
Morávka,Morávka,73905,,599,0
Vyšní Lhoty,Vyšní Lhoty,73906,,244,0
Raškovice,Raškovice,73907,,232,0
Nošovice,Nošovice,73909,,58,0
Frýdlant nad Ostravicí,Frýdlant nad Ostravicí,73911,Poštovní,310,0
Čeladná,Čeladná,73912,,643,0
Kunčice pod Ondřejníkem,Kunčice pod Ondřejníkem,73913,,569,0
Ostravice,Ostravice,73914,,603,0
Staré Hamry,Staré Hamry,73915,,283,0
Paskov,Paskov,73921,Nádražní,700,0
Soběšovice,Soběšovice,73922,,10,0
Stará Ves nad Ondřejnicí,Stará Ves nad Ondřejnicí,73923,Zámecká,202,0
Krmelín,Krmelín,73924,Kostelní,70,0
Sviadnov,Sviadnov,73925,Ostravská,26,0
Frýdek-Místek 4,Frýdek-Místek,73930,K Sedlištím,370,0
Řepiště,Řepiště,73931,Mírová,178,0
Vratimov 1,Vratimov,73932,Frýdecká,853,57
Vratimov 3,Vratimov,73933,Vratimovská,258,0
Šenov u Ostravy,Šenov,73934,Radniční náměstí,300,0
Václavovice,Václavovice,73935,Obecní,150,0
Sedliště,Sedliště,73936,,170,0
Horní Bludovice,Horní Bludovice,73937,,434,0
Dolní Domaslavice,Dolní Domaslavice,73938,,4,0
Lučina,Lučina,73939,,1,0
Palkovice,Palkovice,73941,,265,0
Frýdek-Místek 8,Frýdek-Místek,73942,Františka Prokopa,110,0
Staříč,Staříč,73943,Fryčovická,335,0
Brušperk,Brušperk,73944,Kostelní,48,0
Fryčovice,Fryčovice,73945,,83,0
Hukvaldy,Hukvaldy,73946,,175,0
Kozlovice,Kozlovice,73947,,343,0
Metylovice,Metylovice,73949,,146,0
Dobrá,Dobrá,73951,,230,0
Dobratice,Dobratice,73952,,61,0
Hnojník,Hnojník,73953,,116,0
Komorní Lhotka,Komorní Lhotka,73954,,26,0
Smilovice u Třince,Smilovice,73955,,13,0
Ropice,Ropice,73956,,110,0
Střítež,Střítež,73959,,213,0
Třinec 1,Třinec,73961,Poštovní,207,0
Třinec 3,Třinec,73963,Jablunkovská,406,0
Třinec 8,Třinec,73964,Frýdecká,77,0
Milíkov,Milíkov,73981,,130,0
Dolní Lomná,Dolní Lomná,73982,,164,0
Písek,Písek,73984,,51,0
Bukovec,Bukovec,73985,,107,0
Jablunkov,Jablunkov,73991,Bukovecká,106,0
Návsí,Návsí,73992,,511,0
Třanovice,Třanovice,73993,,250,0
Vendryně,Vendryně,73994,,600,0
Bystřice nad Olší,Bystřice,73995,,324,0
Nýdek,Nýdek,73996,,251,0
Hrádek,Hrádek,73997,,352,0
Mosty u Jablunkova,Mosty u Jablunkova,73998,,986,0
Nový Jičín 1,Nový Jičín,74101,Gen. Hlaďo,1849,25
Nový Jičín 3,Nový Jičín,74103,Za Potokem,90,0
Suchdol nad Odrou,Suchdol nad Odrou,74201,Malá strana,238,0
Studénka 1,Studénka,74211,2. května,7,0
Studénka 3,Studénka,74213,Sjednocení,763,0
Kopřivnice,Kopřivnice,74221,Štefánikova,1163,12
Starý Jičín,Starý Jičín,74231,,132,0
Jeseník nad Odrou,Jeseník nad Odrou,74233,,256,0
Vražné,Vražné,74234,,37,0
Odry,Odry,74235,Masarykovo náměstí,1,1
Jakubčovice nad Odrou,Jakubčovice nad Odrou,74236,Oderská,100,0
Spálov,Spálov,74237,,62,0
Bernartice nad Odrou,Bernartice nad Odrou,74241,,200,0
Šenov u Nového Jičína,Šenov u Nového Jičína,74242,Dukelská,174,0
Pustějov,Pustějov,74243,,54,0
Kujavy,Kujavy,74244,,151,0
Fulnek 1,Fulnek,74245,náměstí Komenského,16,0
Fulnek 3,Fulnek,74246,,86,0
Hladké Životice,Hladké Životice,74247,Hlavní,208,0
Mošnov,Mošnov,74251,,175,0
Kunín,Kunín,74253,,56,0
Bartošovice,Bartošovice,74254,,135,0
Albrechtičky,Albrechtičky,74255,,131,0
Sedlnice,Sedlnice,74256,,130,0
Libhošť,Libhošť,74257,,230,0
Příbor,Příbor,74258,Jičínská,240,0
Skotnice,Skotnice,74259,,24,0
Petřvald u Nového Jičína,Petřvald,74260,,18,0
Trnávka u Nového Jičína,Trnávka,74261,,106,0
Rybí,Rybí,74265,,35,0
Štramberk,Štramberk,74266,Zauličí,265,0
Ženklava,Ženklava,74267,,131,0
Hodslavice,Hodslavice,74271,,78,0
Mořkov,Mořkov,74272,Mlýnská,61,0
Veřovice,Veřovice,74273,,670,0
Tichá,Tichá,74274,,1,0
Lichnov,Lichnov,74275,,90,0
Bravantice,Bravantice,74281,,223,0
Jistebník,Jistebník,74282,,331,0
Klimkovice,Klimkovice,74283,Náměstí,31,0
Vřesina u Bílovce,Vřesina,74285,Hlavní,24,0
Velké Albrechtice,Velké Albrechtice,74291,,248,0
Bílovec 5,Bílovec,74292,,35,0
Slatina u Bílovce,Slatina,74293,,170,0
Tísek,Tísek,74294,,62,0
Trojanovice,Trojanovice,74296,,1,0
Bílovec 1,Bílovec,74301,Městský kopec,1138,3
Frenštát pod Radhoštěm,Frenštát pod Radhoštěm,74401,náměstí Míru,22,0
Opava 1,Opava,74601,U Fortny,49,10
Opava 8,Opava,74608,Těšínská,2914,44
Opava 5,Opava,74705,Partyzánská,1521,7
Kozmice u Hlučína,Kozmice,74711,Poručíka Hoši,528,2c
Ludgeřovice,Ludgeřovice,74714,Markvartovická,42,33
Šilheřovice,Šilheřovice,74715,Střední,117,0
Hať u Hlučína,Hať,74716,Lipová,357,86
Darkovice,Darkovice,74717,Dlouhá,180,37
Píšť,Píšť,74718,Opavská,177,19
Bohuslavice u Hlučína,Bohuslavice,74719,Opavská,134,0
Vřesina,Vřesina,74720,21. dubna,247,1
Kravaře u Hlučína,Kravaře,74721,Poštovní,71,2
Dolní Benešov,Dolní Benešov,74722,Poštovní,83,0
Bolatice,Bolatice,74723,Hlučínská,685,4
Chuchelná,Chuchelná,74724,K. M. Lichnovského,267,0
Sudice,Sudice,74725,Hlavní,148,0
Rohov,Rohov,74726,Hlavní,51,0
Kobeřice,Kobeřice,74727,Hlučínská,888,0
Štěpánkovice,Štěpánkovice,74728,Poštovní,364,1
Strahovice,Strahovice,74730,,190,0
Velké Hoštice,Velké Hoštice,74731,Zámecká,74,0
Chlebičov,Chlebičov,74732,Hlavní,65,0
Oldřišov,Oldřišov,74733,Hlinská,90,0
Hněvošice,Hněvošice,74735,Opavská,170,0
Hradec nad Moravicí,Hradec nad Moravicí,74741,Opavská,687,0
Žimrovice,Hradec nad Moravicí,74742,Meleček,90,0
Větřkovice u Vítkova,Větřkovice,74743,,197,0
Březová u Vítkova,Březová,74744,,106,0
Skřipov,Skřipov,74745,,244,0
Vítkov 3,Vítkov,74747,,75,0
Stěbořice,Stěbořice,74751,,17,0
Hlavnice,Hlavnice,74752,,168,0
Jakartovice,Jakartovice,74753,,95,0
Mladecko,Mladecko,74754,,19,0
Litultovice,Litultovice,74755,,51,0
Dolní Životice,Dolní Životice,74756,Štáblovská,35,0
Slavkov u Opavy,Slavkov,74757,Ludvíka Svobody,25,0
Raduň,Raduň,74761,Poštovní,239,0
Mokré Lazce,Mokré Lazce,74762,Pavla Křížkovského,158,0
Hrabyně 1,Hrabyně,74763,,1,0
Velká Polom,Velká Polom,74764,Osvoboditelů,217,0
Hlubočec,Hlubočec,74765,,95,0
Dolní Lhota,Dolní Lhota,74766,Poštovní,250,0
Hrabyně 3,Hrabyně,74767,,204,0
Kyjovice,Kyjovice,74768,,2,0
Pustá Polom,Pustá Polom,74769,Poštovní,73,0
Brumovice,Brumovice,74771,Hlavní,75,56
Vávrovice,Opava,74773,Jantarová,288,18
Neplachovice,Neplachovice,74774,Školní,207,0
Velké Heraltice,Velké Heraltice,74775,Nad Poštou,91,0
Otice,Otice,74781,Hlavní,1,0
Štáblovice,Štáblovice,74782,,166,0
Melč,Melč,74784,,81,0
Kružberk,Kružberk,74786,,43,0
Budišov nad Budišovkou,Budišov nad Budišovkou,74787,9. května,40,0
Štítina,Štítina,74791,Hlavní,68,0
Háj ve Slezsku,Háj ve Slezsku,74792,Antonína Vaška,5,0
Děhylov,Děhylov,74794,Výstavní,179,17
Suché Lazce,Opava,74795,Přerovecká,9,21
Hlučín,Hlučín,74801,Školní,1076,4
Darkovičky,Hlučín,74802,Nový svět,302,2
Bobrovníky,Hlučín,74803,Rekreační,394,9
Vítkov 1,Vítkov,74901,Pivovarská,325,0
Přerov 2,Přerov,75002,Kratochvílova,114,4
Tovačov,Tovačov,75101,Náměstí,21,0
Troubky nad Bečvou,Troubky,75102,Vrbí,425,13
Brodek u Přerova,Brodek u Přerova,75103,Masarykovo náměstí,100,0
Rokytnice,Rokytnice,75104,,348,0
Kokory,Kokory,75105,,57,0
Majetín,Majetín,75106,Lipová,25,0
Stará Ves u Přerova,Stará Ves,75107,,75,0
Bochoř,Bochoř,75108,Náves,364,14
Radslavice,Radslavice,75111,Na Návsi,103,0
Pavlovice u Přerova,Pavlovice u Přerova,75112,,101,0
Dřevohostice,Dřevohostice,75114,Náměstí,67,0
Domaželice u Přerova,Domaželice,75115,,123,0
Želatovice,Želatovice,75116,,156,0
Horní Moštěnice,Horní Moštěnice,75117,Dr. A. Stojana,14,8
Říkovice,Říkovice,75118,,7,0
Vlkoš u Přerova,Vlkoš,75119,Náves,101,13
Prosenice,Prosenice,75121,Na Loukách,219,0
Osek nad Bečvou,Osek nad Bečvou,75122,,65,0
Dolní Újezd,Dolní Újezd,75123,,155,0
Veselíčko u Lipníka nad Bečvou,Veselíčko,75125,,68,0
Lipník nad Bečvou,Lipník nad Bečvou,75131,Novosady,29,17
Týn nad Bečvou,Týn nad Bečvou,75132,Náves B. Smetany,68,0
Jezernice,Jezernice,75135,,82,0
Křenovice u Kojetína,Křenovice,75141,,52,0
Měrovice nad Hanou,Měrovice nad Hanou,75142,,11,0
Polkovice,Polkovice,75144,,15,0
Přerov 1,Přerov,75151,Husova,2846,2
Kojetín,Kojetín,75201,náměstí Dr. E. Beneše,5,0
Hranice 1,Hranice,75301,Tř. 1. máje,1901,0
Teplice nad Bečvou,Teplice nad Bečvou,75351,,53,0
Skalička u Hranic,Skalička,75352,,34,0
Všechovice,Všechovice,75353,,17,0
Soběchleby,Soběchleby,75354,,6,0
Paršovice,Paršovice,75355,,98,0
Opatovice u Hranic,Opatovice,75356,Záhorská,9,0
Hranice 4,Hranice,75361,Nám. Osvobození,56,0
Potštát,Potštát,75362,Bočkovo náměstí,11,0
Střítež nad Ludinou,Střítež nad Ludinou,75363,,122,0
Bělotín,Bělotín,75364,,151,0
Polom,Polom,75365,,95,0
Hustopeče nad Bečvou,Hustopeče nad Bečvou,75366,Dlouhá,92,0
Milotice nad Bečvou,Milotice nad Bečvou,75367,,59,0
Černotín,Černotín,75368,,1,0
Vsetín 1,Vsetín,75501,Mostecká,1144,0
Vsetín 4,Vsetín,75504,Ohrada,1851,0
Hovězí,Hovězí,75601,,1,0
Huslenky,Huslenky,75602,,426,0
Halenkov,Halenkov,75603,,409,0
Nový Hrozenkov,Nový Hrozenkov,75604,,455,0
Karolinka,Karolinka,75605,Radniční náměstí,42,0
Velké Karlovice,Velké Karlovice,75606,,15,0
Zděchov,Zděchov,75607,,175,0
Valašská Polanka,Valašská Polanka,75611,,344,0
Horní Lideč,Horní Lideč,75612,,104,0
Prlov,Prlov,75613,,141,0
Francova Lhota,Francova Lhota,75614,,437,0
Lidečko,Lidečko,75615,,467,0
Ratiboř,Ratiboř,75621,,75,0
Hošťálková u Vsetína,Hošťálková,75622,,35,0
Jablůnka,Jablůnka,75623,,365,0
Bystřička,Bystřička,75624,,159,0
Růžďka,Růžďka,75625,,320,0
Valašská Bystřice,Valašská Bystřice,75627,,316,0
Liptál,Liptál,75631,,81,0
Lešná,Lešná,75641,,35,0
Choryně,Choryně,75642,,199,0
Kelč,Kelč,75643,,30,0
Loučka,Loučka,75644,,82,0
Branky,Branky,75645,,6,0
Zašová,Zašová,75651,,523,0
Střítež nad Bečvou,Střítež nad Bečvou,75652,,193,0
Vidče,Vidče,75653,,252,0
Zubří,Zubří,75654,Hlavní,79,0
Dolní Bečva,Dolní Bečva,75655,,340,0
Prostřední Bečva,Prostřední Bečva,75656,,430,0
Horní Bečva,Horní Bečva,75657,,657,0
Rožnov pod Radhoštěm 1,Rožnov pod Radhoštěm,75661,Náměstí Míru,1268,0
Hutisko-Solanec,Hutisko-Solanec,75662,,512,0
Krhová,Krhová,75663,U Kapličky,573,0
Valašské Meziříčí 1,Valašské Meziříčí,75701,Poláškova,122,10
Zlín 1,Zlín,76001,J. A. Bati,5648,0
Zlín 5,Zlín,76005,Okružní,4695,0
Zlín 6,Zlín,76006,Podlesí IV,5307,0
Zlín 7,Zlín,76007,třída Tomáše Bati,3757,0
Mysločovice,Mysločovice,76301,,95,0
Zlín 4,Zlín,76302,Masarykova,1014,0
Velký Ořechov,Velký Ořechov,76307,,208,0
Želechovice nad Dřevnicí,Želechovice nad Dřevnicí,76311,4. května,214,0
Vizovice,Vizovice,76312,Palackého Nám.,352,0
Jasenná u Vizovic,Jasenná,76313,,190,0
Zlín 12,Zlín,76314,Mariánské náměstí,66,0
Slušovice,Slušovice,76315,Dlouhá,19,0
Fryšták,Fryšták,76316,náměstí Míru,19,0
Lukov u Zlína,Lukov,76317,K Lůčkám,401,0
Trnava u Zlína,Trnava,76318,,156,0
Kašava,Kašava,76319,,235,0
Slavičín,Slavičín,76321,K. Vystrčila,39,0
Dolní Lhota u Luhačovic,Dolní Lhota,76323,,129,0
Vlachovice,Vlachovice,76324,,50,0
Újezd u Valašských Klobouk,Újezd,76325,,372,0
Luhačovice,Luhačovice,76326,Dr. Veselého,468,0
Brumov-Bylnice,Brumov-Bylnice,76331,Č. Kramoliše,1013,0
Nedašov,Nedašov,76332,,370,0
Štítná nad Vláří,Štítná nad Vláří-Popov,76333,,72,0
Biskupice u Luhačovic,Biskupice,76341,,4,0
Březůvky,Březůvky,76345,,1,0
Bohuslavice u Zlína,Bohuslavice u Zlína,76351,,185,0
Napajedla,Napajedla,76361,Palackého,204,0
Tlumačov,Tlumačov,76362,náměstí Komenského,61,0
Halenkovice,Halenkovice,76363,,76,0
Spytihněv,Spytihněv,76364,,359,0
Otrokovice 1,Otrokovice,76501,Tylova,950,0
Otrokovice 2,Otrokovice,76502,tř. Osvobození,1210,0
Valašské Klobouky,Valašské Klobouky,76601,Cyrilometodějská,772,0
Kroměříž 1,Kroměříž,76701,Spáčilova,3763,44
Kroměříž 2,Kroměříž,76702,náměstí Míru,520,1
Zdounky,Zdounky,76802,,177,0
Roštín,Roštín,76803,,393,0
Střílky,Střílky,76804,Koryčanská,47,0
Koryčany,Koryčany,76805,Náměstí,153,0
Chropyně,Chropyně,76811,náměstí Svobody,48,0
Rataje,Rataje,76812,,22,0
Litenčice,Litenčice,76813,,162,0
Kvasice,Kvasice,76821,Kroměřížská,318,0
Břest,Břest,76823,,87,0
Hulín,Hulín,76824,Záhlinická,466,0
Zlobice,Zlobice,76831,,77,0
Zborovice,Zborovice,76832,Hlavní,7,0
Morkovice-Slížany,Morkovice-Slížany,76833,Nádražní,701,0
Pačlavice,Pačlavice,76834,,1,0
Bystřice pod Hostýnem 7,Bystřice pod Hostýnem,76841,,106,0
Prusinovice,Prusinovice,76842,Novosady,204,0
Kostelec u Holešova,Kostelec u Holešova,76843,,58,0
Rusava,Rusava,76845,,248,0
Míškovice u Holešova,Míškovice,76852,,46,0
Bystřice pod Hostýnem 1,Bystřice pod Hostýnem,76861,Meziříčská,1519,0
Rajnochovice,Rajnochovice,76871,,181,0
Chvalčov,Chvalčov,76872,Obřanská,145,0
Loukov,Loukov,76875,,218,0
Holešov,Holešov,76901,Masarykova,655,19
Olomouc 6,Olomouc,77006,Polská,1201,1
Olomouc 10,Olomouc,77010,Foerstrova,717,21
Olomouc 12,Olomouc,77012,Janského,469,8
Olomouc 1,Olomouc,77100,Mariánská,844,2
Olomouc 2,Olomouc,77200,Jeremenkova,104,19
Mobilní pošta 71,Křepice,77777,,25,0
Olomouc 9,Olomouc,77900,Ladova,346,6
Horní Loděnice,Horní Loděnice,78305,,114,0
Domašov nad Bystřicí,Domašov nad Bystřicí,78306,Náměstí,76,0
Město Libavá,Město Libavá,78307,Náměstí,2,0
Hnojice,Hnojice,78311,,160,0
Pňovice,Pňovice,78312,,187,0
Štěpánov u Olomouce,Štěpánov,78313,U parku,353,2
Bohuňovice,Bohuňovice,78314,6. května,109,0
Bělkovice-Lašťany,Bělkovice-Lašťany,78315,,90,0
Dolany u Olomouce,Dolany,78316,,15,0
Cholina,Cholina,78322,,52,0
Vilémov u Litovle,Vilémov,78323,,146,0
Slavětín,Slavětín,78324,,59,0
Bouzov,Bouzov,78325,,60,0
Bílá Lhota,Bílá Lhota,78326,,1,0
Náklo,Náklo,78332,,14,0
Příkazy,Příkazy,78333,,125,0
Skrbeň,Skrbeň,78334,Na Návsi,131,2
Horka nad Moravou,Horka nad Moravou,78335,náměstí Osvobození,16,46
Křelov-Břuchotín,Křelov-Břuchotín,78336,Marie Majerové,45,25
Bystročice,Bystročice,78341,,6,0
Slatinice,Slatinice,78342,,242,0
Drahanovice,Drahanovice,78343,,111,0
Náměšť na Hané,Náměšť na Hané,78344,Sokolská,560,0
Senice na Hané,Senice na Hané,78345,náměstí Míru,15,0
Těšetice,Těšetice,78346,,108,0
Hněvotín,Hněvotín,78347,,253,0
Lutín,Lutín,78349,Olomoucká,124,0
Olomouc 15,Olomouc,78351,náměstí Sadové,7,26
Velká Bystřice,Velká Bystřice,78353,Zámecké náměstí,736,0
Přáslavice,Přáslavice,78354,,23,0
Velký Újezd,Velký Újezd,78355,Olomoucká,15,0
Doloplazy,Doloplazy,78356,,73,0
Tršice,Tršice,78357,,49,0
Hlubočky 1,Hlubočky,78361,Dukelských hrdinů,502,0
Hlubočky 3,Hlubočky,78365,Olomoucká,488,0
Velký Týnec 1,Velký Týnec,78372,Na kříbě,59,0
Grygov,Grygov,78373,U Parku,119,0
Charváty,Charváty,78374,,3,0
Dub nad Moravou,Dub nad Moravou,78375,Náměstí,94,0
Věrovany,Věrovany,78376,,125,0
Kožušany-Tážaly,Kožušany-Tážaly,78378,,1,0
Medlov u Uničova,Medlov,78382,,300,0
Troubelice,Troubelice,78383,,352,0
Nová Hradečná,Nová Hradečná,78384,,96,0
Šumvald u Uničova,Šumvald,78385,,271,0
Dlouhá Loučka,Dlouhá Loučka,78386,Zámecká,8,0
Uničov 1,Uničov,78391,Dr. Beneše,79,0
Mladějovice,Mladějovice,78395,,24,0
Újezd u Uničova,Újezd,78396,,290,0
Paseka u Šternberka,Paseka,78397,,94,0
Jívová,Jívová,78398,,69,0
Litovel,Litovel,78401,Vítězná,176,29a
Šternberk 1,Šternberk,78501,ČSA,118,17
Šumperk 1,Šumperk,78701,Gen. Svobody,100,13
Šumperk 4,Šumperk,78704,Temenická,2782,91
Oskava,Oskava,78801,,135,0
Nový Malín,Nový Malín,78803,,504,0
Hrabišín,Hrabišín,78804,,65,0
Libina,Libina,78805,,212,0
Loučná nad Desnou,Loučná nad Desnou,78811,,57,0
Vikýřovice,Vikýřovice,78813,Petrovská,75,0
Rapotín,Rapotín,78814,Jesenická,344,0
Velké Losiny,Velké Losiny,78815,Lázeňská,414,0
Petrov nad Desnou,Petrov nad Desnou,78816,,156,0
Dolní Studénky,Dolní Studénky,78820,,99,0
Sudkov,Sudkov,78821,,96,0
Jindřichov u Šumperka,Jindřichov,78823,,92,0
Staré Město,Staré Město,78832,náměstí Osvobození,166,0
Hanušovice,Hanušovice,78833,Hlavní,372,0
Zábřeh,Zábřeh,78901,Postřelmovská,465,1a
Mírov,Mírov,78953,,24,0
Bludov,Bludov,78961,tř. A. Kašpara,348,0
Olšany,Olšany,78962,,75,0
Ruda nad Moravou,Ruda nad Moravou,78963,9. května,64,0
Bohdíkov,Bohdíkov,78964,,163,0
Písařov,Písařov,78965,,80,0
Postřelmov,Postřelmov,78969,Komenského,61,0
Leština u Zábřeha,Leština,78971,Družstevní,92,0
Dubicko,Dubicko,78972,Velká Strana,56,0
Úsov,Úsov,78973,náměstí Míru,48,0
Rohle,Rohle,78974,,56,0
Brníčko u Zábřeha,Brníčko,78975,,120,0
Dlouhomilov,Dlouhomilov,78976,,138,0
Moravičany,Moravičany,78982,,67,0
Loštice,Loštice,78983,Hradská,72,2
Mohelnice,Mohelnice,78985,Nádražní,381,9
Štíty,Štíty,78991,Na Pilníku,221,0
Jedlí,Jedlí,78992,,16,0
Jeseník 1,Jeseník,79001,Poštovní,341,3
Jeseník 3,Jeseník,79003,Priessnitzova,311,35
Supíkovice,Supíkovice,79051,,130,0
Velké Kunětice,Velké Kunětice,79052,,146,0
Stará Červená Voda,Stará Červená Voda,79053,,111,0
Černá Voda,Černá Voda,79054,,47,0
Vidnava,Vidnava,79055,Hrdinů,250,0
Bernartice,Bernartice,79057,,60,0
Velká Kraš,Velká Kraš,79058,,132,0
Lipová-lázně 1,Lipová-lázně,79061,,514,0
Lipová-lázně 3,Lipová-lázně,79063,,37,0
Vápenná,Vápenná,79064,,105,0
Žulová,Žulová,79065,Bezručova,51,0
Skorošice,Skorošice,79066,,93,0
Vlčice u Jeseníku,Vlčice,79067,,95,0
Uhelná,Uhelná,79068,,153,0
Bílá Voda,Bílá Voda,79069,,1,0
Javorník u Jeseníku,Javorník,79070,Nádražní,163,0
Česká Ves,Česká Ves,79081,Jánského,328,0
Písečná,Písečná,79082,,305,0
Široký Brod,Mikulovice,79083,,51,0
Mikulovice u Jeseníku 1,Mikulovice,79084,Hlavní,5,0
Bělá pod Pradědem,Bělá pod Pradědem,79085,,488,0
Bruntál 1,Bruntál,79201,M. Tyrše,1499,4
Lomnice,Lomnice,79302,,230,0
Dětřichov nad Bystřicí,Dětřichov nad Bystřicí,79303,,58,0
Moravský Beroun,Moravský Beroun,79305,Masarykova,200,0
Horní Benešov,Horní Benešov,79312,Tyršova,337,0
Svobodné Heřmanice,Svobodné Heřmanice,79313,Sokolovská,157,0
Sosnová,Sosnová,79314,,11,0
Lichnov u Bruntálu,Lichnov,79315,,42,0
Zátor,Zátor,79316,,107,0
Široká Niva,Široká Niva,79322,,79,0
Karlovice,Karlovice,79323,,183,0
Karlova Studánka,Karlova Studánka,79324,,6,0
Vrbno pod Pradědem,Vrbno pod Pradědem,79326,Jesenická,256,12
Světlá Hora,Světlá Hora,79331,,340,0
Andělská Hora,Andělská Hora,79332,,197,0
Staré Město u Bruntálu,Staré Město,79333,,25,0
Malá Morávka,Malá Morávka,79336,,55,0
Václavov u Bruntálu,Václavov u Bruntálu,79341,,69,0
Stará Ves u Rýmařova,Stará Ves,79343,Potočná,289,18
Horní Město,Horní Město,79344,,237,0
Břidličná,Břidličná,79351,Nábřežní,452,0
Ryžoviště,Ryžoviště,79356,náměstí Míru,105,0
Huzová,Huzová,79357,,158,0
Razová,Razová,79364,,351,0
Dvorce u Bruntálu,Dvorce,79368,Opavská,19,0
Holčovice,Holčovice,79371,,175,0
Heřmanovice,Heřmanovice,79374,,131,0
Zlaté Hory v Jeseníkách,Zlaté Hory,79376,Bezručova,144,0
Hošťálkovy,Hošťálkovy,79381,,30,0
Třemešná,Třemešná,79382,,304,0
Jindřichov u Krnova,Jindřichov,79383,,478,0
Janov u Krnova,Janov,79384,,40,0
Úvalno,Úvalno,79391,,58,0
Brantice,Brantice,79393,,121,0
Krasov,Krasov,79394,,29,0
Město Albrechtice,Město Albrechtice,79395,náměstí ČSA,58,11
Liptaň,Liptaň,79396,,269,0
Slezské Rudoltice,Slezské Rudoltice,79397,,53,0
Bohušov,Bohušov,79398,,15,0
Osoblaha,Osoblaha,79399,Na Náměstí,101,0
Krnov 1,Krnov,79401,náměstí Minoritů,88,11
Rýmařov,Rýmařov,79501,náměstí Míru,214,7
Prostějov 1,Prostějov,79601,Poděbradovo náměstí,979,13
Prostějov 2,Prostějov,79602,Janáčkova,3160,4
Prostějov 4,Prostějov,79604,Plumlovská,4126,0
Držovice,Držovice,79607,Konečná,452,23
Prostějov 9,Prostějov,79801,Lipová,134,1
Mostkovice,Mostkovice,79802,Stichovická,321,0
Plumlov,Plumlov,79803,Tyršovo náměstí,160,0
Určice,Určice,79804,,81,0
Myslejovice,Myslejovice,79805,,145,0
Otaslavice,Otaslavice,79806,,343,0
Brodek u Prostějova,Brodek u Prostějova,79807,Císařská,39,0
Vranovice-Kelčice,Vranovice-Kelčice,79808,,75,0
Vřesovice,Vřesovice,79809,,41,0
Kralice na Hané,Kralice na Hané,79812,Masarykovo náměstí,41,0
Vrbátky,Vrbátky,79813,,28,0
Olšany u Prostějova,Olšany u Prostějova,79814,,50,0
Čelechovice na Hané,Čelechovice na Hané,79816,Hlavní,14,0
Smržice,Smržice,79817,Zákostelí,143,1
Bedihošť,Bedihošť,79821,Prostějovská,106,0
Klenovice na Hané,Klenovice na Hané,79823,,95,0
Pivín,Pivín,79824,,220,0
Dobromilice,Dobromilice,79825,,281,0
Nezamyslice u Prostějova,Nezamyslice,79826,1. máje,459,0
Němčice nad Hanou,Němčice nad Hanou,79827,Palackého náměstí,3,0
Mořice,Mořice,79828,,68,0
Tištín,Tištín,79829,,58,0
Pavlovice u Kojetína,Pavlovice u Kojetína,79830,,55,0
Kostelec na Hané,Kostelec na Hané,79841,Tyršova,795,0
Lešany u Prostějova,Lešany,79842,,10,0
Ptení,Ptení,79843,,89,0
Stražisko,Stražisko,79844,,122,0
Suchdol u Prostějova,Suchdol,79845,,72,0
Brodek u Konice,Brodek u Konice,79846,,256,0
Horní Štěpánov,Horní Štěpánov,79847,,326,0
Protivanov,Protivanov,79848,Náměstí,31,0
Malé Hradisko,Malé Hradisko,79849,,60,0
Přemyslovice,Přemyslovice,79851,,281,0
Konice,Konice,79852,Masarykovo náměstí,41,0
Kladky,Kladky,79854,,179,0
Hvozd,Hvozd,79855,,90,0
Bohuslavice,Bohuslavice,79856,,21,0
Laškov,Laškov,79857,,1,0
Čechy pod Kosířem,Čechy pod Kosířem,79858,náměstí Svobody,289,0
Drahany,Drahany,79861,,26,0
Rozstání,Rozstání,79862,,77,0
